{
"type": "FeatureCollection",
"name": "bike_routes",
"crs": { "type": "name", "properties": { "name": "urn:ogc:def:crs:OGC:1.3:CRS84" } },
"features": [
{ "type": "Feature", "properties": { "id": "bike-1", "name": "VANDERBILT AV", "facility_class": "II", "length_mi": 1.17, "segment_count": 12 }, "geometry": { "type": "MultiLineString", "coordinates": [ [ [ -73.967678283051953, 40.680955455312549 ], [ -73.967824631502111, 40.680548600554538 ] ], [ [ -73.967477963582056, 40.681586290155977 ], [ -73.967678283051953, 40.680955455312549 ] ], [ [ -73.967960547981349, 40.68372681250014 ], [ -73.967553941748633, 40.681848964586074 ] ], [ [ -73.968054218598638, 40.684204903395944 ], [ -73.967960547981349, 40.68372681250014 ] ], [ [ -73.968491376434713, 40.686402862965387 ], [ -73.968054218598638, 40.684204903395944 ] ], [ [ -73.968784932397298, 40.68786734919199 ], [ -73.968491376434713, 40.686402862965387 ] ], [ [ -73.968863888895882, 40.688263804541727 ], [ -73.968784932397298, 40.68786734919199 ] ], [ [ -73.969103625039224, 40.68946752149705 ], [ -73.968863888895882, 40.688263804541727 ] ], [ [ -73.969521151956243, 40.691563559354741 ], [ -73.969103625039224, 40.68946752149705 ] ], [ [ -73.969831185692556, 40.693134243807123 ], [ -73.969521151956243, 40.691563559354741 ] ], [ [ -73.970365369499731, 40.695812408525789 ], [ -73.969831185692556, 40.693134243807123 ] ], [ [ -73.970773149584687, 40.697840801045388 ], [ -73.970429916829175, 40.696116960479436 ] ] ] } },
{ "type": "Feature", "properties": { "id": "bike-2", "name": "CARLTON AV", "facility_class": "II", "length_mi": 1.14, "segment_count": 18 }, "geometry": { "type": "MultiLineString", "coordinates": [ [ [ -73.970826026566087, 40.681615941161731 ], [ -73.970983121064634, 40.681204777528443 ] ], [ [ -73.970614477382611, 40.682246394940236 ], [ -73.970809127036958, 40.681666302635541 ] ], [ [ -73.970938648748799, 40.683520620935049 ], [ -73.970871729311355, 40.683220519424545 ] ], [ [ -73.971239221091665, 40.685027486769016 ], [ -73.970938648748799, 40.683520620935049 ] ], [ [ -73.97143374727807, 40.68606457859407 ], [ -73.971239221091665, 40.685027486769016 ] ], [ [ -73.97172665702719, 40.687527994595129 ], [ -73.97143374727807, 40.68606457859407 ] ], [ [ -73.972135906623478, 40.689581922425155 ], [ -73.97172665702719, 40.687527994595129 ] ], [ [ -73.972553423653011, 40.691679488201466 ], [ -73.972135906623478, 40.689581922425155 ] ], [ [ -73.972861877285865, 40.69324841617594 ], [ -73.972553423653011, 40.691679488201466 ] ], [ [ -73.972938138437001, 40.693650920166213 ], [ -73.972873073976444, 40.693306917934613 ] ], [ [ -73.973078670354695, 40.693638118115906 ], [ -73.973079241215714, 40.693613178545782 ], [ -73.973081586706343, 40.693588299725086 ], [ -73.973085700880105, 40.693563553693252 ], [ -73.973091573057303, 40.69353901428974 ], [ -73.973099183094206, 40.693514753550545 ], [ -73.973108510847638, 40.693490842611169 ], [ -73.973119526710008, 40.693467351704179 ], [ -73.973132201074691, 40.693444349261327 ], [ -73.97314649487042, 40.693421903711879 ], [ -73.973162365477492, 40.693400081683158 ], [ -73.973179767911574, 40.693378946200077 ], [ -73.973198650090197, 40.693358560285596 ], [ -73.973218956383036, 40.693338983359972 ], [ -73.973240626428563, 40.693320273041245 ] ], [ [ -73.973211784525517, 40.694319342999457 ], [ -73.973141485188421, 40.693989819976636 ] ], [ [ -73.973076139462265, 40.694338925415032 ], [ -73.973007696760376, 40.694004335559931 ] ], [ [ -73.973372615830939, 40.695134784696599 ], [ -73.973261533611804, 40.694593108647666 ] ], [ [ -73.97323545544738, 40.695146731500671 ], [ -73.973124371069787, 40.694610190043129 ] ], [ [ -73.97351397103624, 40.695889533357935 ], [ -73.973401781208864, 40.695300794649008 ] ], [ [ -73.973365571360844, 40.695884365288251 ], [ -73.973269114526687, 40.695314455306573 ] ], [ [ -73.973798710153744, 40.697960449450719 ], [ -73.973463415442637, 40.696239933669816 ] ] ] } },
{ "type": "Feature", "properties": { "id": "bike-3", "name": "DE KALB AV", "facility_class": "II", "length_mi": 1.14, "segment_count": 23 }, "geometry": { "type": "MultiLineString", "coordinates": [ [ [ -73.980429411456356, 40.689900414243482 ], [ -73.979510297374176, 40.689863000033746 ] ], [ [ -73.98139773168451, 40.689928669956352 ], [ -73.980429411456356, 40.689900414243482 ] ], [ [ -73.962256255720561, 40.690121719489618 ], [ -73.960292817119779, 40.690346250134638 ] ], [ [ -73.966134991084587, 40.689672588564605 ], [ -73.965187690579967, 40.689782357632396 ] ], [ [ -73.965187690579967, 40.689782357632396 ], [ -73.964267894113888, 40.689889254807511 ] ], [ [ -73.964267894113888, 40.689889254807511 ], [ -73.963321522038839, 40.689999044821334 ] ], [ [ -73.963321522038839, 40.689999044821334 ], [ -73.962509582626765, 40.690092548221465 ] ], [ [ -73.960083367908908, 40.690370715762391 ], [ -73.959575918792638, 40.690429987815726 ] ], [ [ -73.958578448293508, 40.690545693966158 ], [ -73.958180487265594, 40.69059072968922 ] ], [ [ -73.969103625039224, 40.68946752149705 ], [ -73.968077873190779, 40.689452265994909 ] ], [ [ -73.970131542404843, 40.689506307836695 ], [ -73.969103625039224, 40.68946752149705 ] ], [ [ -73.968077873190779, 40.689452265994909 ], [ -73.967115389379515, 40.689561055254281 ] ], [ [ -73.975105664142404, 40.68969750867047 ], [ -73.974109054347863, 40.689662582982528 ] ], [ [ -73.97610195527605, 40.689736522996441 ], [ -73.975105664142404, 40.68969750867047 ] ], [ [ -73.977098021323769, 40.68977293427313 ], [ -73.97610195527605, 40.689736522996441 ] ], [ [ -73.977939408725305, 40.689806193405396 ], [ -73.977234490891362, 40.689778329310691 ] ], [ [ -73.9786254596997, 40.689838940366734 ], [ -73.977939408725305, 40.689806193405396 ] ], [ [ -73.979510297374176, 40.689863000033746 ], [ -73.9786254596997, 40.689838940366734 ] ], [ [ -73.971142745280829, 40.689543820085397 ], [ -73.970131542404843, 40.689506307836695 ] ], [ [ -73.972135906623478, 40.689581922425155 ], [ -73.971142745280829, 40.689543820085397 ] ], [ [ -73.973126384045273, 40.689621888634193 ], [ -73.972135906623478, 40.689581922425155 ] ], [ [ -73.974109054347863, 40.689662582982528 ], [ -73.973126384045273, 40.689621888634193 ] ], [ [ -73.967115389379515, 40.689561055254281 ], [ -73.966134991084587, 40.689672588564605 ] ] ] } },
{ "type": "Feature", "properties": { "id": "bike-4", "name": "BROOKLYN BRIDGE PARK GREENWAY", "facility_class": "I", "length_mi": 1.11, "segment_count": 16 }, "geometry": { "type": "MultiLineString", "coordinates": [ [ [ -74.000773057787598, 40.691895757774866 ], [ -74.001794320191024, 40.692184775935246 ] ], [ [ -74.001617275472739, 40.692549071171634 ], [ -74.001506361605578, 40.692772330543107 ], [ -74.000805692096549, 40.694182679357453 ], [ -74.000805692129802, 40.694185431324421 ] ], [ [ -74.000259201334927, 40.694497415589268 ], [ -74.000247340543964, 40.694491617213991 ], [ -74.000235900943778, 40.69448534696798 ], [ -74.000224915661789, 40.694478622861467 ], [ -74.000214415459297, 40.694471463805421 ], [ -74.000204429914362, 40.694463890511557 ], [ -74.000194987421878, 40.694455922791427 ], [ -74.000186115193657, 40.694447584958795 ], [ -74.000162776964856, 40.694432039443008 ], [ -74.00013837630928, 40.694417469179079 ], [ -74.000112983030533, 40.694403916490231 ], [ -74.000086670481352, 40.694391420998443 ], [ -74.000059515563677, 40.694380018723528 ], [ -74.000031595179237, 40.694369741182747 ], [ -74.000002990962017, 40.694360619893601 ], [ -73.999970344042509, 40.694353415787894 ], [ -73.999938228350473, 40.694344940149293 ], [ -73.999906731438159, 40.694335213690046 ], [ -73.999875934942125, 40.69432426342609 ], [ -73.999845921681583, 40.69431211817453 ], [ -73.999816772109668, 40.694298810354567 ], [ -73.999788563129655, 40.694284375987522 ], [ -73.999746617057227, 40.694258122354249 ], [ -73.999706444513222, 40.694230309022146 ], [ -73.999668144879521, 40.694201003531639 ], [ -73.999631815171057, 40.694170280627574 ], [ -73.999597544120434, 40.694138216855649 ], [ -73.999565416910329, 40.694104890562592 ], [ -73.999535516356531, 40.694070386398728 ], [ -73.99952969196768, 40.694060546472066 ], [ -73.999522934103311, 40.694051058641719 ], [ -73.999515278256609, 40.694041975137438 ], [ -73.999506765836358, 40.694033343686407 ], [ -73.999497442983667, 40.694025212916259 ], [ -73.999487359388894, 40.694017625151162 ], [ -73.999476570658061, 40.694010621814769 ], [ -73.999465135946167, 40.694004241629187 ], [ -73.999453114408396, 40.693998517913528 ], [ -73.99923561742996, 40.693886386624037 ] ], [ [ -73.999734785434427, 40.69556694635277 ], [ -73.999733253192488, 40.69558646045715 ], [ -73.999730052724388, 40.695605856590397 ], [ -73.999725195860407, 40.695625052805788 ], [ -73.999718705079232, 40.695643966255943 ], [ -73.999710606408826, 40.695662517695666 ], [ -73.99970093534273, 40.695680627879518 ], [ -73.999689733289969, 40.695698219363088 ], [ -73.999677047575688, 40.695715216503146 ], [ -73.999662931440739, 40.695731548158797 ], [ -73.999647446408247, 40.695747144089651 ], [ -73.999630657550924, 40.695761937657551 ], [ -73.999612635857389, 40.695775866726819 ], [ -73.999593459415252, 40.695788871863193 ], [ -73.999573209861865, 40.695800896334248 ], [ -73.999551972384069, 40.695811890611466 ], [ -73.999529838084811, 40.69582180606703 ], [ -73.999506901616371, 40.695830602177772 ], [ -73.999483259997618, 40.695838241122154 ], [ -73.999459013797022, 40.6958446895812 ], [ -73.999434265949418, 40.6958499214402 ], [ -73.999409122938999, 40.695853912385559 ], [ -73.999383692433383, 40.695856647108812 ] ], [ [ -73.999383692433383, 40.695856647108812 ], [ -73.999295414519509, 40.695860935743568 ], [ -73.999175205634998, 40.695983877421376 ], [ -73.999093767417094, 40.696153928696027 ] ], [ [ -74.000636838641967, 40.69436024171732 ], [ -74.000609423558217, 40.69437082289037 ], [ -74.000581323431391, 40.694380308136346 ], [ -74.000552615165091, 40.694388672239981 ], [ -74.000523376845976, 40.69439589268773 ], [ -74.000493685377918, 40.694401950568086 ], [ -74.000463622397362, 40.69440682877056 ], [ -74.000433267174614, 40.694410514687448 ], [ -74.000417154311961, 40.694413072203105 ], [ -74.000401282808696, 40.694416390648954 ], [ -74.000385715369404, 40.694420457417614 ], [ -74.000370511149455, 40.694425256299873 ], [ -74.000355730487371, 40.694430767484398 ], [ -74.000341431355452, 40.69443697115986 ], [ -74.000327669359734, 40.69444384211198 ], [ -74.000314496557181, 40.694451353325356 ], [ -74.000301966187749, 40.694459476884163 ], [ -74.000290126759069, 40.694468179469546 ], [ -74.000279024412592, 40.694477427762592 ], [ -74.000268702923549, 40.694487185743021 ], [ -74.000259201334927, 40.694497415589268 ] ], [ [ -74.000259201334927, 40.694497415589268 ], [ -73.999734785434427, 40.69556694635277 ] ], [ [ -73.997424793179704, 40.698636564772208 ], [ -73.997455260025532, 40.698615094536414 ], [ -73.997487395097295, 40.698595080457203 ], [ -73.997521075340913, 40.698576599074144 ], [ -73.99755617770299, 40.698559718822182 ], [ -73.997592569665372, 40.698544501832579 ], [ -73.997630115160831, 40.698531006634639 ], [ -73.997668674573447, 40.69851928185205 ], [ -73.997692697355916, 40.69850583588714 ], [ -73.997715402098436, 40.698491121969738 ], [ -73.99773667166221, 40.698475215741396 ], [ -73.997756399557446, 40.698458195545363 ], [ -73.997774484027133, 40.698440150531148 ], [ -73.997790835146446, 40.698421170749121 ], [ -73.997805367723387, 40.698401352553134 ], [ -73.997818009581295, 40.698380796799903 ], [ -73.997828696825934, 40.698359608848733 ], [ -73.997854854853543, 40.69831928620048 ], [ -73.997877675117905, 40.698277806326274 ], [ -73.99789707006336, 40.698235327716681 ], [ -73.997912965149709, 40.698192016066329 ], [ -73.997925298852564, 40.698148037069743 ], [ -73.997934023845929, 40.698103560023569 ], [ -73.997939104636103, 40.698058756925839 ], [ -73.997940524660535, 40.698013799774593 ], [ -73.997938276822069, 40.697968862368725 ], [ -73.997940095187801, 40.697898199199187 ], [ -73.997947895691624, 40.697827772070049 ], [ -73.997961647543107, 40.697757873646054 ], [ -73.997981291556172, 40.697688796590569 ], [ -73.998006748432005, 40.697620826361629 ], [ -73.99803790929387, 40.697554247515427 ], [ -73.998074645152712, 40.697489336502606 ], [ -73.998116804541652, 40.697426362568443 ], [ -73.998164211149259, 40.697365589554515 ], [ -73.998183120386315, 40.697329020046347 ], [ -73.998200696181783, 40.697292067796319 ], [ -73.998216925522001, 40.697254759820154 ], [ -73.998231796576547, 40.697217125835202 ], [ -73.998245297515055, 40.697179193757648 ], [ -73.99825741887355, 40.697140992404243 ], [ -73.998268150005117, 40.697102550591602 ], [ -73.99828147182366, 40.697080841237863 ], [ -73.998296590842941, 40.697059823502713 ], [ -73.998313441985417, 40.697039584734085 ], [ -73.998331958990903, 40.697020206877006 ], [ -73.998352064951021, 40.697001769174619 ], [ -73.998373678225306, 40.696984347268064 ], [ -73.99839670889132, 40.696968012295663 ], [ -73.99842106584417, 40.696952830893196 ], [ -73.998446647330724, 40.696938865193943 ], [ -73.998473348048833, 40.696926172828363 ], [ -73.998501061513721, 40.696914804223084 ], [ -73.998524310874373, 40.696851118482428 ], [ -73.998553687742927, 40.696788915957711 ], [ -73.998589030004268, 40.696728537936593 ], [ -73.9986301459667, 40.696670316700349 ], [ -73.998676808446717, 40.696614570121191 ], [ -73.998728763051218, 40.696561603463323 ], [ -73.99878572344538, 40.696511708482646 ], [ -73.998928793689117, 40.696389027683026 ], [ -73.999031791325862, 40.69626324320739 ] ], [ [ -73.997321249848355, 40.69954397252333 ], [ -73.997351477291275, 40.699513933038389 ], [ -73.997379053195402, 40.699482450864572 ], [ -73.997403858053531, 40.699449660177407 ], [ -73.997425785374148, 40.699415703257181 ], [ -73.997444742864985, 40.699380725085959 ], [ -73.997460645333291, 40.699344876048848 ], [ -73.99747342770128, 40.699308311934246 ], [ -73.997483034357145, 40.699271188530602 ], [ -73.997489422704632, 40.699233665228427 ], [ -73.997492566712523, 40.699195904119883 ], [ -73.99749245099855, 40.699158068197526 ], [ -73.997489079111858, 40.699120318653243 ], [ -73.9974824617005, 40.699082818479539 ], [ -73.997472630710178, 40.699045728868391 ], [ -73.99745962636888, 40.699009209210388 ], [ -73.997443505468866, 40.698973417095431 ], [ -73.997424336634239, 40.698938506511368 ], [ -73.997412248631178, 40.698919686435552 ], [ -73.99740179465222, 40.698900307177226 ], [ -73.99739301965441, 40.698880450684456 ], [ -73.997385961495425, 40.698860202507191 ], [ -73.997380649750426, 40.698839647294527 ], [ -73.997377106895087, 40.698818873297427 ], [ -73.997375347122727, 40.698797966965529 ], [ -73.997375378710515, 40.698777018350334 ], [ -73.997377201653308, 40.698756115702047 ], [ -73.997380807663532, 40.698735347270542 ], [ -73.997386181354642, 40.698714801305606 ], [ -73.997393301424069, 40.698694566056709 ], [ -73.997402135920822, 40.698674725270251 ], [ -73.997412648161259, 40.698655364493888 ], [ -73.997424793179704, 40.698636564772208 ] ], [ [ -73.996739527027501, 40.700718088377272 ], [ -73.996987912883796, 40.700326498485857 ], [ -73.99699770276284, 40.700302548723165 ], [ -73.997005534421461, 40.70027818557358 ], [ -73.997011375910546, 40.700253500888934 ], [ -73.997015204746788, 40.700228589222739 ], [ -73.997017006729493, 40.700203545128531 ], [ -73.997016775940594, 40.700178464060514 ], [ -73.997014512378186, 40.700153441473049 ], [ -73.997010225505875, 40.700128572820397 ], [ -73.997003930703571, 40.700103953557189 ], [ -73.996995651633526, 40.700079676436339 ], [ -73.996985420240534, 40.700055833310515 ], [ -73.996973648168236, 40.70003502216742 ], [ -73.996963788207992, 40.700013641949816 ], [ -73.996955887682134, 40.699991795317942 ], [ -73.996949985630266, 40.699969586732543 ], [ -73.996946108076429, 40.699947121554608 ], [ -73.996944275128513, 40.699924505144722 ], [ -73.996944495061783, 40.69990184736573 ], [ -73.99694676550294, 40.699879255378391 ], [ -73.996951078162496, 40.699856835442965 ], [ -73.996957409369145, 40.699834695619941 ], [ -73.996965731902435, 40.699812940367636 ], [ -73.996976004343338, 40.699791673243503 ], [ -73.996988179357032, 40.699770996003664 ], [ -73.997002197777192, 40.699751005901177 ], [ -73.997017993338332, 40.699731799288614 ], [ -73.997321249848355, 40.69954397252333 ] ], [ [ -73.996739527027501, 40.700718088377272 ], [ -73.996617361599021, 40.700985008311605 ] ], [ [ -73.996617361599021, 40.700985008311605 ], [ -73.996511341388569, 40.701325176238683 ], [ -73.99625695574035, 40.701655755175871 ], [ -73.996092580209975, 40.701920814484261 ], [ -73.995745447301331, 40.702758722117323 ] ], [ [ -73.99253804243493, 40.703950780531613 ], [ -73.990663434405818, 40.703907936074906 ] ], [ [ -73.993397102771794, 40.703939377608464 ], [ -73.99324586313125, 40.703964856013961 ], [ -73.99253804243493, 40.703950780531613 ] ], [ [ -73.995745447301331, 40.702758722117323 ], [ -73.995737615701799, 40.702770400564667 ], [ -73.995728796098916, 40.702781663838898 ], [ -73.99571902399336, 40.702792463313436 ], [ -73.995708343168857, 40.702802751262539 ], [ -73.995696799775487, 40.70281248446323 ], [ -73.995684442329647, 40.702821621493413 ], [ -73.995671324081044, 40.702830121831809 ], [ -73.995657503012225, 40.702837950360411 ], [ -73.995643037105637, 40.702845071961207 ], [ -73.995627987893414, 40.70285145691944 ], [ -73.995612422823982, 40.702857077321596 ], [ -73.995596405795837, 40.702861908855994 ], [ -73.995580007806808, 40.702865931713994 ], [ -73.995563298671371, 40.702869127887858 ], [ -73.995546350570422, 40.702871482972071 ], [ -73.995529235684558, 40.70287298796427 ], [ -73.995512027377387, 40.702873636563531 ], [ -73.995494801379024, 40.702873425170864 ], [ -73.995477629869313, 40.702872354689489 ], [ -73.995460587394561, 40.702870429625001 ], [ -73.995443747317339, 40.702867658985468 ], [ -73.995427183000089, 40.702864054480578 ] ], [ [ -73.995260152036366, 40.702810208827024 ], [ -73.995111027104741, 40.702796784964271 ], [ -73.995059533765229, 40.702796118187919 ], [ -73.995023270069112, 40.702797858215398 ], [ -73.994987833145629, 40.702803971152591 ], [ -73.994954128198813, 40.702814301251436 ], [ -73.994923015478406, 40.702828584701329 ], [ -73.994895288980686, 40.702846456832425 ], [ -73.994871656333231, 40.702867461119126 ], [ -73.994852721044566, 40.702891062686923 ], [ -73.994849531766235, 40.702895861371402 ], [ -73.994709233342476, 40.70299388651771 ] ] ] } },
{ "type": "Feature", "properties": { "id": "bike-5", "name": "LAFAYETTE AV", "facility_class": "II", "length_mi": 1.0, "segment_count": 19 }, "geometry": { "type": "MultiLineString", "coordinates": [ [ [ -73.979810844528529, 40.686646845961974 ], [ -73.979362976391442, 40.686682000010393 ] ], [ [ -73.966820695360042, 40.688088713164333 ], [ -73.965822046696559, 40.688209422896591 ] ], [ [ -73.965822046696559, 40.688209422896591 ], [ -73.964809580391119, 40.688325680205665 ] ], [ [ -73.962215600870394, 40.688626264999371 ], [ -73.96000519730768, 40.688881033301236 ] ], [ [ -73.964809580391119, 40.688325680205665 ], [ -73.962835589109162, 40.688554797730092 ] ], [ [ -73.962835589109162, 40.688554797730092 ], [ -73.962215600870394, 40.688626264999371 ] ], [ [ -73.974616571445395, 40.687190705601481 ], [ -73.973648179291274, 40.687302610862822 ] ], [ [ -73.973648179291274, 40.687302610862822 ], [ -73.972687460050835, 40.687415194185824 ] ], [ [ -73.972687460050835, 40.687415194185824 ], [ -73.97172665702719, 40.687527994595129 ] ], [ [ -73.97172665702719, 40.687527994595129 ], [ -73.970763660939383, 40.687638282996751 ] ], [ [ -73.9790571080391, 40.686713597804328 ], [ -73.978198125144175, 40.686819217100208 ] ], [ [ -73.978198125144175, 40.686819217100208 ], [ -73.97736135217022, 40.686918638821176 ] ], [ [ -73.97736135217022, 40.686918638821176 ], [ -73.976837123932796, 40.686967439588223 ] ], [ [ -73.976205857408914, 40.687025404725041 ], [ -73.975589960427399, 40.687086375574381 ] ], [ [ -73.975589960427399, 40.687086375574381 ], [ -73.974616571445395, 40.687190705601481 ] ], [ [ -73.970763660939383, 40.687638282996751 ], [ -73.969783142428639, 40.687751611480152 ] ], [ [ -73.969783142428639, 40.687751611480152 ], [ -73.968784932397298, 40.68786734919199 ] ], [ [ -73.968784932397298, 40.68786734919199 ], [ -73.967787499387327, 40.687983690810995 ] ], [ [ -73.967787499387327, 40.687983690810995 ], [ -73.966820695360042, 40.688088713164333 ] ] ] } },
{ "type": "Feature", "properties": { "id": "bike-6", "name": "CLERMONT AV", "facility_class": "II", "length_mi": 0.94, "segment_count": 7 }, "geometry": { "type": "MultiLineString", "coordinates": [ [ [ -73.969489398896471, 40.686288307407814 ], [ -73.969062019842056, 40.684157361479393 ] ], [ [ -73.969783142428639, 40.687751611480152 ], [ -73.969489398896471, 40.686288307407814 ] ], [ [ -73.970131542404843, 40.689506307836695 ], [ -73.969783142428639, 40.687751611480152 ] ], [ [ -73.970859337912074, 40.693172024105586 ], [ -73.97054932687206, 40.6916018647402 ] ], [ [ -73.97054932687206, 40.6916018647402 ], [ -73.970131542404843, 40.689506307836695 ] ], [ [ -73.971400897963264, 40.695852157984355 ], [ -73.970859337912074, 40.693172024105586 ] ], [ [ -73.97180794118465, 40.697885068108974 ], [ -73.971450029938055, 40.696165341447127 ] ] ] } },
{ "type": "Feature", "properties": { "id": "bike-7", "name": "FLUSHING AV", "facility_class": "I", "length_mi": 0.93, "segment_count": 20 }, "geometry": { "type": "MultiLineString", "coordinates": [ [ [ -73.966742286371186, 40.697672137712544 ], [ -73.965774762027721, 40.69763578043964 ] ], [ [ -73.965774762027721, 40.69763578043964 ], [ -73.964875733682064, 40.69771433143714 ] ], [ [ -73.964875733682064, 40.69771433143714 ], [ -73.963949085807371, 40.697860107125223 ] ], [ [ -73.963949085807371, 40.697860107125223 ], [ -73.962839637722254, 40.698038668068222 ] ], [ [ -73.971202812264679, 40.697857990270812 ], [ -73.970773149584687, 40.697840801045388 ] ], [ [ -73.97180794118465, 40.697885068108974 ], [ -73.971202812264679, 40.697857990270812 ] ], [ [ -73.972794777416595, 40.697920838019911 ], [ -73.97180794118465, 40.697885068108974 ] ], [ [ -73.974786638572851, 40.698004811428923 ], [ -73.973798710153744, 40.697960449450719 ] ], [ [ -73.975193151952126, 40.698022186900637 ], [ -73.974786638572851, 40.698004811428923 ] ], [ [ -73.975782757631833, 40.69804773033303 ], [ -73.975193151952126, 40.698022186900637 ] ], [ [ -73.976786425600011, 40.698086947336094 ], [ -73.975782757631833, 40.69804773033303 ] ], [ [ -73.977531016526086, 40.6981158124442 ], [ -73.976786425600011, 40.698086947336094 ] ], [ [ -73.973323786211154, 40.697939651082045 ], [ -73.972794777416595, 40.697920838019911 ] ], [ [ -73.973798710153744, 40.697960449450719 ], [ -73.973323786211154, 40.697939651082045 ] ], [ [ -73.978088927426455, 40.698138323855204 ], [ -73.977531016526086, 40.6981158124442 ] ], [ [ -73.980544191530655, 40.698246511386905 ], [ -73.978088927426455, 40.698138323855204 ] ], [ [ -73.967727447320641, 40.697717624795061 ], [ -73.966742286371186, 40.697672137712544 ] ], [ [ -73.968739492925067, 40.697759849994235 ], [ -73.967727447320641, 40.697717624795061 ] ], [ [ -73.969727899033245, 40.697804014190247 ], [ -73.968739492925067, 40.697759849994235 ] ], [ [ -73.970773149584687, 40.697840801045388 ], [ -73.969727899033245, 40.697804014190247 ] ] ] } },
{ "type": "Feature", "properties": { "id": "bike-8", "name": "BERGEN ST", "facility_class": "II", "length_mi": 0.88, "segment_count": 8 }, "geometry": { "type": "MultiLineString", "coordinates": [ [ [ -73.979540995874899, 40.682464439115549 ], [ -73.97817001794823, 40.681932173555673 ] ], [ [ -73.981992440497777, 40.683418142034995 ], [ -73.979688972865489, 40.6825219721607 ] ], [ [ -73.983952927369501, 40.684181428592346 ], [ -73.981992440497777, 40.683418142034995 ] ], [ [ -73.991939851759398, 40.687314071800294 ], [ -73.990467394833786, 40.686727751928352 ] ], [ [ -73.993268299908735, 40.687824451167074 ], [ -73.991939851759398, 40.687314071800294 ] ], [ [ -73.986119122001341, 40.685024330098365 ], [ -73.983952927369501, 40.684181428592346 ] ], [ [ -73.990467394833786, 40.686727751928352 ], [ -73.988282936923142, 40.685866785258192 ] ], [ [ -73.988282936923142, 40.685866785258192 ], [ -73.986119122001341, 40.685024330098365 ] ] ] } },
{ "type": "Feature", "properties": { "id": "bike-9", "name": "HENRY ST", "facility_class": "II", "length_mi": 0.82, "segment_count": 16 }, "geometry": { "type": "MultiLineString", "coordinates": [ [ [ -73.994829170718788, 40.693673535856107 ], [ -73.995080169688336, 40.693147214213113 ] ], [ [ -73.994618624905229, 40.6941198743719 ], [ -73.994829170718788, 40.693673535856107 ] ], [ [ -73.99429815693918, 40.694791686458586 ], [ -73.994618624905229, 40.6941198743719 ] ], [ [ -73.996548051498905, 40.690103525408972 ], [ -73.996793375023628, 40.689598692756945 ] ], [ [ -73.996232781380925, 40.690757774365693 ], [ -73.996548051498905, 40.690103525408972 ] ], [ [ -73.995914356729102, 40.691415489268607 ], [ -73.996232781380925, 40.690757774365693 ] ], [ [ -73.995080169688336, 40.693147214213113 ], [ -73.995914356729102, 40.691415489268607 ] ], [ [ -73.993978108492811, 40.695462956409891 ], [ -73.99429815693918, 40.694791686458586 ] ], [ [ -73.993785195655605, 40.695870193966229 ], [ -73.993978108492811, 40.695462956409891 ] ], [ [ -73.993018221785334, 40.697462365007219 ], [ -73.993785195655605, 40.695870193966229 ] ], [ [ -73.992708303106383, 40.698099260160625 ], [ -73.993018221785334, 40.697462365007219 ] ], [ [ -73.992390899480327, 40.698746995200288 ], [ -73.992708303106383, 40.698099260160625 ] ], [ [ -73.99207482674565, 40.699394425029922 ], [ -73.992287412875513, 40.698958971590592 ] ], [ [ -73.991758356179091, 40.700051812672939 ], [ -73.99207482674565, 40.699394425029922 ] ], [ [ -73.991453276253097, 40.700690612768788 ], [ -73.991758356179091, 40.700051812672939 ] ], [ [ -73.991287965261108, 40.700978007782695 ], [ -73.991453276253097, 40.700690612768788 ] ] ] } },
{ "type": "Feature", "properties": { "id": "bike-10", "name": "WILLOUGHBY AV", "facility_class": "II", "length_mi": 0.81, "segment_count": 16 }, "geometry": { "type": "MultiLineString", "coordinates": [ [ [ -73.966566286218068, 40.69175568278196 ], [ -73.96559989461916, 40.691871095891877 ] ], [ [ -73.96559989461916, 40.691871095891877 ], [ -73.964683097019659, 40.691981113037713 ] ], [ [ -73.964683097019659, 40.691981113037713 ], [ -73.963749521630319, 40.692088803277144 ] ], [ [ -73.961899104385907, 40.692300671684634 ], [ -73.960738583864767, 40.692423904951042 ] ], [ [ -73.960738583864767, 40.692423904951042 ], [ -73.959843446812869, 40.692530459972765 ] ], [ [ -73.959843446812869, 40.692530459972765 ], [ -73.958993612917652, 40.692627829944726 ] ], [ [ -73.958993612917652, 40.692627829944726 ], [ -73.958238855110878, 40.69271460271306 ] ], [ [ -73.963749521630319, 40.692088803277144 ], [ -73.962808936961807, 40.692200859270763 ] ], [ [ -73.962808936961807, 40.692200859270763 ], [ -73.961899104385907, 40.692300671684634 ] ], [ [ -73.971559721236204, 40.691640660833876 ], [ -73.97054932687206, 40.6916018647402 ] ], [ [ -73.972553423653011, 40.691679488201466 ], [ -73.971559721236204, 40.691640660833876 ] ], [ [ -73.973540185669137, 40.691707609098501 ], [ -73.972553423653011, 40.691679488201466 ] ], [ [ -73.969521151956243, 40.691563559354741 ], [ -73.968492732366173, 40.691544803860609 ] ], [ [ -73.97054932687206, 40.6916018647402 ], [ -73.969521151956243, 40.691563559354741 ] ], [ [ -73.968492732366173, 40.691544803860609 ], [ -73.967531228230186, 40.69164378215347 ] ], [ [ -73.967531228230186, 40.69164378215347 ], [ -73.966566286218068, 40.69175568278196 ] ] ] } },
{ "type": "Feature", "properties": { "id": "bike-11", "name": "PARK AV", "facility_class": "III", "length_mi": 0.75, "segment_count": 16 }, "geometry": { "type": "MultiLineString", "coordinates": [ [ [ -73.966359372752251, 40.695660534466981 ], [ -73.965405850412395, 40.695626976960092 ] ], [ [ -73.96735229296489, 40.69569506690938 ], [ -73.966359372752251, 40.695660534466981 ] ], [ [ -73.975113949536521, 40.695997336004154 ], [ -73.974385003593142, 40.695967433945633 ] ], [ [ -73.976366038709187, 40.696023262740759 ], [ -73.975113949536521, 40.695997336004154 ] ], [ [ -73.977198028523006, 40.696074636430005 ], [ -73.976366038709187, 40.696023262740759 ] ], [ [ -73.978331975904624, 40.696139548326308 ], [ -73.977198028523006, 40.696074636430005 ] ], [ [ -73.971400897963264, 40.695852157984355 ], [ -73.970365369499731, 40.695812408525789 ] ], [ [ -73.972405963021885, 40.695888715617947 ], [ -73.971400897963264, 40.695852157984355 ] ], [ [ -73.979989892767307, 40.696200290021586 ], [ -73.979536647477261, 40.696172285431992 ] ], [ [ -73.980356828415836, 40.696177516235252 ], [ -73.979989892767307, 40.696200290021586 ] ], [ [ -73.973407738892476, 40.695934076130349 ], [ -73.972405963021885, 40.695888715617947 ] ], [ [ -73.974246384939079, 40.69596174689103 ], [ -73.973407738892476, 40.695934076130349 ] ], [ [ -73.979536647477261, 40.696172285431992 ], [ -73.978873220943584, 40.696159349466612 ] ], [ [ -73.968344492316547, 40.695734939631855 ], [ -73.96735229296489, 40.69569506690938 ] ], [ [ -73.969340977576607, 40.69576842931243 ], [ -73.968344492316547, 40.695734939631855 ] ], [ [ -73.970365369499731, 40.695812408525789 ], [ -73.969340977576607, 40.69576842931243 ] ] ] } },
{ "type": "Feature", "properties": { "id": "bike-12", "name": "CLASSON AV", "facility_class": "II", "length_mi": 0.72, "segment_count": 12 }, "geometry": { "type": "MultiLineString", "coordinates": [ [ [ -73.958983280164276, 40.683749915524388 ], [ -73.958840621190149, 40.683018052823051 ] ], [ [ -73.959132067841693, 40.684485148080647 ], [ -73.958983280164276, 40.683749915524388 ] ], [ [ -73.959275987271752, 40.685216704557206 ], [ -73.959132067841693, 40.684485148080647 ] ], [ [ -73.959422592768661, 40.685950305899873 ], [ -73.959275987271752, 40.685216704557206 ] ], [ [ -73.959567702291224, 40.686682555691704 ], [ -73.959422592768661, 40.685950305899873 ] ], [ [ -73.959713747882063, 40.687415634033066 ], [ -73.959567702291224, 40.686682555691704 ] ], [ [ -73.959859395220931, 40.688147451263191 ], [ -73.959713747882063, 40.687415634033066 ] ], [ [ -73.96000519730768, 40.688881033301236 ], [ -73.959859395220931, 40.688147451263191 ] ], [ [ -73.960097146555512, 40.689345209649318 ], [ -73.96000519730768, 40.688881033301236 ] ], [ [ -73.960292817119779, 40.690346250134638 ], [ -73.960237403466053, 40.690062221714719 ] ], [ [ -73.960738583864767, 40.692423904951042 ], [ -73.960292817119779, 40.690346250134638 ] ], [ [ -73.961092641925134, 40.694010503887604 ], [ -73.960738583864767, 40.692423904951042 ] ] ] } },
{ "type": "Feature", "properties": { "id": "bike-13", "name": "DEAN ST", "facility_class": "II", "length_mi": 0.72, "segment_count": 7 }, "geometry": { "type": "MultiLineString", "coordinates": [ [ [ -73.979114170387533, 40.683102700830226 ], [ -73.97773995415622, 40.682565589537553 ] ], [ [ -73.981561515369037, 40.684053548473898 ], [ -73.979271076615163, 40.683161766902323 ] ], [ [ -73.983521992472689, 40.684816265980899 ], [ -73.981561515369037, 40.684053548473898 ] ], [ [ -73.988390106945474, 40.686713801251244 ], [ -73.987858867273474, 40.686503440477878 ] ], [ [ -73.990035002727595, 40.68736512581394 ], [ -73.988390106945474, 40.686713801251244 ] ], [ [ -73.987858867273474, 40.686503440477878 ], [ -73.985689692538443, 40.685660454447707 ] ], [ [ -73.985689692538443, 40.685660454447707 ], [ -73.983521992472689, 40.684816265980899 ] ] ] } },
{ "type": "Feature", "properties": { "id": "bike-14", "name": "SCHERMERHORN ST", "facility_class": "I", "length_mi": 0.58, "segment_count": 8 }, "geometry": { "type": "MultiLineString", "coordinates": [ [ [ -73.9805331632042, 40.686891896616977 ], [ -73.979810844528529, 40.686646845961974 ] ], [ [ -73.981816774506768, 40.687329802124822 ], [ -73.9805331632042, 40.686891896616977 ] ], [ [ -73.983987775986691, 40.688174644255341 ], [ -73.981816774506768, 40.687329802124822 ] ], [ [ -73.988300473619461, 40.689869425356662 ], [ -73.987623135442348, 40.689600581909517 ] ], [ [ -73.989639494019727, 40.690326708239994 ], [ -73.988300473619461, 40.689869425356662 ] ], [ [ -73.986155342869949, 40.689017977081789 ], [ -73.983987775986691, 40.688174644255341 ] ], [ [ -73.987012449344064, 40.689358188282462 ], [ -73.986155342869949, 40.689017977081789 ] ], [ [ -73.987623135442348, 40.689600581909517 ], [ -73.987012449344064, 40.689358188282462 ] ] ] } },
{ "type": "Feature", "properties": { "id": "bike-15", "name": "CLINTON ST", "facility_class": "II", "length_mi": 0.52, "segment_count": 10 }, "geometry": { "type": "MultiLineString", "coordinates": [ [ [ -73.994677539317181, 40.689582939432512 ], [ -73.994920992109655, 40.6890802306064 ] ], [ [ -73.994360928104072, 40.69023947955111 ], [ -73.994677539317181, 40.689582939432512 ] ], [ [ -73.994045588244546, 40.690897261518842 ], [ -73.994360928104072, 40.69023947955111 ] ], [ [ -73.993736597111422, 40.69153504251927 ], [ -73.994045588244546, 40.690897261518842 ] ], [ [ -73.993437598884185, 40.692154443739469 ], [ -73.993736597111422, 40.69153504251927 ] ], [ [ -73.993103000348668, 40.692845855123913 ], [ -73.993437598884185, 40.692154443739469 ] ], [ [ -73.992743660689058, 40.693604803280806 ], [ -73.993103000348668, 40.692845855123913 ] ], [ [ -73.992423472144409, 40.694276088812764 ], [ -73.992743660689058, 40.693604803280806 ] ], [ [ -73.992099822421295, 40.694947371358687 ], [ -73.992423472144409, 40.694276088812764 ] ], [ [ -73.991516105650405, 40.696135159962729 ], [ -73.992099822421295, 40.694947371358687 ] ] ] } },
{ "type": "Feature", "properties": { "id": "bike-16", "name": "BOERUM PL", "facility_class": "II", "length_mi": 0.5, "segment_count": 13 }, "geometry": { "type": "MultiLineString", "coordinates": [ [ [ -73.991508770344012, 40.687958403231939 ], [ -73.991939851759398, 40.687314071800294 ] ], [ [ -73.990090149302432, 40.689704079050486 ], [ -73.990474881436825, 40.689141074603604 ] ], [ [ -73.990257836295285, 40.689759456923738 ], [ -73.990629436954677, 40.689187913985478 ] ], [ [ -73.989880949741661, 40.689993112091152 ], [ -73.990090149302432, 40.689704079050486 ] ], [ [ -73.990060481418965, 40.690043688853869 ], [ -73.990257836295285, 40.689759456923738 ] ], [ [ -73.989639494019727, 40.690326708239994 ], [ -73.989880949741661, 40.689993112091152 ] ], [ [ -73.989411300869961, 40.691021436072674 ], [ -73.989822182496255, 40.690386887828595 ] ], [ [ -73.989103773038977, 40.691421570171656 ], [ -73.989207276273618, 40.691016716440984 ] ], [ [ -73.989300357689544, 40.691476030935462 ], [ -73.989385989588556, 40.691071993950366 ] ], [ [ -73.988933562813614, 40.692086641340545 ], [ -73.989103773038977, 40.691421570171656 ] ], [ [ -73.989105417425037, 40.692153313709639 ], [ -73.989300357689544, 40.691476030935462 ] ], [ [ -73.991093395264656, 40.688571036142932 ], [ -73.991508770344012, 40.687958403231939 ] ], [ [ -73.990706695615216, 40.689136744078141 ], [ -73.991093395264656, 40.688571036142932 ] ] ] } },
{ "type": "Feature", "properties": { "id": "bike-17", "name": "JAY ST", "facility_class": "I", "length_mi": 0.5, "segment_count": 11 }, "geometry": { "type": "MultiLineString", "coordinates": [ [ [ -73.987298949079616, 40.692234075631816 ], [ -73.987347874755216, 40.691457667693413 ] ], [ [ -73.987253963752138, 40.693124903077866 ], [ -73.987298949079616, 40.692234075631816 ] ], [ [ -73.987227510660219, 40.693799519342676 ], [ -73.987253963752138, 40.693124903077866 ] ], [ [ -73.98720083277135, 40.69426798834121 ], [ -73.987227510660219, 40.693799519342676 ] ], [ [ -73.987161328669998, 40.694961695710923 ], [ -73.98720083277135, 40.69426798834121 ] ], [ [ -73.987104562729982, 40.696054003057768 ], [ -73.987161328669998, 40.694961695710923 ] ], [ [ -73.987062350649637, 40.696839343379921 ], [ -73.987095670905774, 40.696294864850479 ] ], [ [ -73.987040435677784, 40.697280006673914 ], [ -73.987062350649637, 40.696839343379921 ] ], [ [ -73.987021805376926, 40.697681822206256 ], [ -73.987040435677784, 40.697280006673914 ] ], [ [ -73.986968922444603, 40.698503614764874 ], [ -73.987021805376926, 40.697681822206256 ] ], [ [ -73.98674782223469, 40.701526499657547 ], [ -73.986783317373963, 40.701119697468684 ] ] ] } },
{ "type": "Feature", "properties": { "id": "bike-18", "name": "MANHATTAN BR", "facility_class": "I", "length_mi": 0.49, "segment_count": 11 }, "geometry": { "type": "MultiLineString", "coordinates": [ [ [ -73.986253145911775, 40.699804599621665 ], [ -73.986153816088134, 40.69965766375838 ], [ -73.986090916747315, 40.699605941563213 ], [ -73.986023572668955, 40.699557570499948 ], [ -73.985952090256944, 40.699512771223574 ], [ -73.985876794846831, 40.699471748182759 ], [ -73.98579803307284, 40.699434687818801 ], [ -73.985716162218381, 40.699401760365795 ], [ -73.98563155613347, 40.699373116249369 ], [ -73.985586548780674, 40.699364829511971 ], [ -73.985540884230574, 40.699358983962931 ], [ -73.985494790830586, 40.699355609347123 ], [ -73.985448499296893, 40.699354722802923 ], [ -73.985402241531574, 40.699356328862102 ], [ -73.985356248256537, 40.699360418548927 ], [ -73.985310750196092, 40.699366972081812 ], [ -73.985297082893439, 40.699372767834063 ], [ -73.985283941967708, 40.699379230931534 ], [ -73.985271384218493, 40.699386334366238 ], [ -73.985259464079817, 40.699394047527939 ], [ -73.985248231253635, 40.699402337104374 ], [ -73.985237734259371, 40.699411167081301 ], [ -73.985228018067076, 40.699420500543781 ], [ -73.985219124098066, 40.699430296974313 ], [ -73.985211091407308, 40.699440515855031 ], [ -73.985203951951846, 40.699451111264054 ], [ -73.985197738871477, 40.699462039981277 ], [ -73.985192475841174, 40.699473254282744 ], [ -73.985188188902569, 40.699484706444771 ], [ -73.985184893448874, 40.699496346941281 ], [ -73.985182604873046, 40.699508127146707 ], [ -73.985181333835854, 40.699519995733233 ], [ -73.985181082715798, 40.699531901372097 ], [ -73.985181856256872, 40.69954379543622 ], [ -73.985183648555562, 40.699555624794556 ], [ -73.985186453707456, 40.699567339017662 ], [ -73.985190258708627, 40.699578889476122 ], [ -73.985195047005618, 40.699590226639557 ], [ -73.985200798495512, 40.699601300076566 ] ], [ [ -73.985200798495512, 40.699601300076566 ], [ -73.985264520283593, 40.699633294443615 ], [ -73.985329904986017, 40.699663280845144 ], [ -73.985396846121063, 40.699691208836185 ], [ -73.985465228922777, 40.699717033373886 ], [ -73.985534940990746, 40.69974071031649 ], [ -73.985605866373447, 40.699762200024686 ], [ -73.985677885568066, 40.699781467361177 ], [ -73.985750879070778, 40.699798479890916 ], [ -73.985824723826994, 40.699813207879842 ], [ -73.985899297963485, 40.699825628798742 ], [ -73.985974476056768, 40.699835721018552 ], [ -73.986050133865149, 40.699843468313809 ], [ -73.986126143596749, 40.69984885626004 ], [ -73.986202379824462, 40.699851876736787 ] ], [ [ -73.986486041499958, 40.700218264826162 ], [ -73.986321501881818, 40.699905713663668 ] ], [ [ -73.986715335895582, 40.700631779636488 ], [ -73.986486041499958, 40.700218264826162 ] ], [ [ -73.986954617781421, 40.701042709730238 ], [ -73.986785295830217, 40.700761113822601 ] ], [ [ -73.987195384325275, 40.701532223543104 ], [ -73.987009347005966, 40.701152737771018 ] ], [ [ -73.987638647788017, 40.702297214513642 ], [ -73.987195384325275, 40.701532223543104 ] ], [ [ -73.988125519279393, 40.703167202472585 ], [ -73.987723678670989, 40.702459881263003 ] ], [ [ -73.988499786415474, 40.70382426280765 ], [ -73.988125519279393, 40.703167202472585 ] ], [ [ -73.988944228211167, 40.704608696086069 ], [ -73.988499786415474, 40.70382426280765 ] ], [ [ -73.989239755188748, 40.705147981010711 ], [ -73.988988977725953, 40.704690356962111 ] ] ] } },
{ "type": "Feature", "properties": { "id": "bike-19", "name": "BROOKLYN BR", "facility_class": "I", "length_mi": 0.47, "segment_count": 6 }, "geometry": { "type": "MultiLineString", "coordinates": [ [ [ -73.988532608146741, 40.69919607877415 ], [ -73.988585801177024, 40.698077718086452 ] ], [ [ -73.989494960106555, 40.700396946807238 ], [ -73.989067357971706, 40.700089229028386 ], [ -73.98889155541103, 40.699947039346455 ], [ -73.98874139728666, 40.699784401274535 ], [ -73.988673047898573, 40.699686355813455 ], [ -73.988627874694728, 40.69960643090711 ], [ -73.988582719956227, 40.699488405314902 ], [ -73.98856319699297, 40.699419641168873 ], [ -73.988526119383124, 40.699327172889426 ] ], [ [ -73.991074319297937, 40.70160563022575 ], [ -73.990888003238865, 40.701448980584367 ], [ -73.990636025176855, 40.701243013280894 ], [ -73.99013401113038, 40.70085197805215 ], [ -73.989977096173064, 40.700738283859984 ] ], [ [ -73.99212598560726, 40.702424974651152 ], [ -73.991188869131165, 40.701696248559017 ] ], [ [ -73.993279868539091, 40.703329990076313 ], [ -73.992572650194901, 40.702781021675619 ] ], [ [ -73.994569789521719, 40.704376263577167 ], [ -73.993279868539091, 40.703329990076313 ] ] ] } },
{ "type": "Feature", "properties": { "id": "bike-20", "name": "ASHLAND PL", "facility_class": "I", "length_mi": 0.46, "segment_count": 6 }, "geometry": { "type": "MultiLineString", "coordinates": [ [ [ -73.978291435163513, 40.687451870742983 ], [ -73.978198125144175, 40.686819217100208 ] ], [ [ -73.978347013112824, 40.687871742940267 ], [ -73.978291435163513, 40.687451870742983 ] ], [ [ -73.9786254596997, 40.689838940366734 ], [ -73.978347013112824, 40.687871742940267 ] ], [ [ -73.978947231881705, 40.691920805090561 ], [ -73.978642557278278, 40.689945005093108 ] ], [ [ -73.979092227135055, 40.692954138647323 ], [ -73.978947231881705, 40.691920805090561 ] ], [ [ -73.979167185372916, 40.69348832297824 ], [ -73.979092227135055, 40.692954138647323 ] ] ] } },
{ "type": "Feature", "properties": { "id": "bike-21", "name": "4 AV", "facility_class": "I", "length_mi": 0.45, "segment_count": 10 }, "geometry": { "type": "MultiLineString", "coordinates": [ [ [ -73.979114170387533, 40.683102700830226 ], [ -73.979540995874899, 40.682464439115549 ] ], [ [ -73.979271076615163, 40.683161766902323 ], [ -73.979688972865489, 40.6825219721607 ] ], [ [ -73.979540995874899, 40.682464439115549 ], [ -73.979975005882736, 40.68182780695011 ] ], [ [ -73.979688972865489, 40.6825219721607 ], [ -73.980129543802889, 40.681891779251181 ] ], [ [ -73.97870368135959, 40.683744322854658 ], [ -73.979114170387533, 40.683102700830226 ] ], [ [ -73.9788439349649, 40.683801198172283 ], [ -73.979271076615163, 40.683161766902323 ] ], [ [ -73.97836730030734, 40.684338644321706 ], [ -73.97870368135959, 40.683744322854658 ] ], [ [ -73.978042895652564, 40.684856615182895 ], [ -73.978388626088758, 40.684423341659738 ] ], [ [ -73.979975005882736, 40.68182780695011 ], [ -73.980291450984907, 40.681369050642417 ] ], [ [ -73.980129543802889, 40.681891779251181 ], [ -73.980442009941555, 40.681427408487281 ] ] ] } },
{ "type": "Feature", "properties": { "id": "bike-22", "name": "MYRTLE AV", "facility_class": "II", "length_mi": 0.45, "segment_count": 13 }, "geometry": { "type": "MultiLineString", "coordinates": [ [ [ -73.980112992065258, 40.693523880456468 ], [ -73.979167185372916, 40.69348832297824 ] ], [ [ -73.980983331641326, 40.693556617121196 ], [ -73.980112992065258, 40.693523880456468 ] ], [ [ -73.982272220476702, 40.693559441569427 ], [ -73.981822517825037, 40.693553141671067 ] ], [ [ -73.983156973860531, 40.693560479470726 ], [ -73.982511615661153, 40.693562793884986 ] ], [ [ -73.981471503028075, 40.693574935737736 ], [ -73.980983331641326, 40.693556617121196 ] ], [ [ -73.974985608093718, 40.693328693622398 ], [ -73.974219812506078, 40.693300167474504 ] ], [ [ -73.975848158047256, 40.693360818160627 ], [ -73.974985608093718, 40.693328693622398 ] ], [ [ -73.976432619819334, 40.693383661072339 ], [ -73.975848158047256, 40.693360818160627 ] ], [ [ -73.977083871812454, 40.693409111413629 ], [ -73.976432619819334, 40.693383661072339 ] ], [ [ -73.9778267944573, 40.693438139097225 ], [ -73.977225840719484, 40.693414658838613 ] ], [ [ -73.978392642027032, 40.693459326831743 ], [ -73.9778267944573, 40.693438139097225 ] ], [ [ -73.974219812506078, 40.693300167474504 ], [ -73.973854724461631, 40.69328655940884 ] ], [ [ -73.979167185372916, 40.69348832297824 ], [ -73.978392642027032, 40.693459326831743 ] ] ] } },
{ "type": "Feature", "properties": { "id": "bike-23", "name": "ADAMS ST", "facility_class": "II", "length_mi": 0.43, "segment_count": 7 }, "geometry": { "type": "MultiLineString", "coordinates": [ [ [ -73.988733978651695, 40.692851967936235 ], [ -73.988859876809045, 40.69250007954949 ] ], [ [ -73.988648982993624, 40.694339775171223 ], [ -73.988733978651695, 40.692851967936235 ] ], [ [ -73.989050839072974, 40.694340018520904 ], [ -73.989115714481031, 40.692851824569871 ] ], [ [ -73.988626202101955, 40.694769692102021 ], [ -73.988648473142618, 40.69441579100323 ] ], [ [ -73.989029452056783, 40.695029211274246 ], [ -73.989041558060237, 40.694639092321808 ] ], [ [ -73.988566962150628, 40.69609294179773 ], [ -73.98861349042437, 40.695013294833714 ] ], [ [ -73.988965738719969, 40.696112791997038 ], [ -73.989029452056783, 40.695029211274246 ] ] ] } },
{ "type": "Feature", "properties": { "id": "bike-24", "name": "BOND ST", "facility_class": "II", "length_mi": 0.39, "segment_count": 9 }, "geometry": { "type": "MultiLineString", "coordinates": [ [ [ -73.986119122001341, 40.685024330098365 ], [ -73.986563034172718, 40.684388755102901 ] ], [ [ -73.985689692538443, 40.685660454447707 ], [ -73.986119122001341, 40.685024330098365 ] ], [ [ -73.98525920258119, 40.686294109602102 ], [ -73.985689692538443, 40.685660454447707 ] ], [ [ -73.984829307418181, 40.686929285043618 ], [ -73.98525920258119, 40.686294109602102 ] ], [ [ -73.984399273952434, 40.687564386770227 ], [ -73.984829307418181, 40.686929285043618 ] ], [ [ -73.984177539117198, 40.687893224025437 ], [ -73.984399273952434, 40.687564386770227 ] ], [ [ -73.983987775986691, 40.688174644255341 ], [ -73.984177539117198, 40.687893224025437 ] ], [ [ -73.982956843931859, 40.689699819044506 ], [ -73.983572614704315, 40.688785953301313 ] ], [ [ -73.982767201652891, 40.689986480906185 ], [ -73.982956843931859, 40.689699819044506 ] ] ] } },
{ "type": "Feature", "properties": { "id": "bike-25", "name": "PACIFIC ST", "facility_class": "III", "length_mi": 0.39, "segment_count": 4 }, "geometry": { "type": "MultiLineString", "coordinates": [ [ [ -73.991093395264656, 40.688571036142932 ], [ -73.989612422948525, 40.687991836831785 ] ], [ [ -73.992622860670409, 40.689160548357769 ], [ -73.991093395264656, 40.688571036142932 ] ], [ [ -73.994677539317181, 40.689582939432512 ], [ -73.992685527610206, 40.689033246788249 ] ], [ [ -73.996548051498905, 40.690103525408972 ], [ -73.994677539317181, 40.689582939432512 ] ] ] } },
{ "type": "Feature", "properties": { "id": "bike-26", "name": "CLASSON AV", "facility_class": "III", "length_mi": 0.38, "segment_count": 5 }, "geometry": { "type": "MultiLineString", "coordinates": [ [ [ -73.958840621190149, 40.683018052823051 ], [ -73.958596559426567, 40.681796979273692 ] ], [ [ -73.961585561427853, 40.696207487397345 ], [ -73.961092641925134, 40.694010503887604 ] ], [ [ -73.961749948593379, 40.69684616855406 ], [ -73.961585561427853, 40.696207487397345 ] ], [ [ -73.961940704791772, 40.697911682129615 ], [ -73.961749948593379, 40.69684616855406 ] ], [ [ -73.961898378157542, 40.698188331647991 ], [ -73.961940704791772, 40.697911682129615 ] ] ] } },
{ "type": "Feature", "properties": { "id": "bike-27", "name": "SMITH ST", "facility_class": "II", "length_mi": 0.38, "segment_count": 9 }, "geometry": { "type": "MultiLineString", "coordinates": [ [ [ -73.991761777424216, 40.684813152616854 ], [ -73.992075211895013, 40.684350240472419 ] ], [ [ -73.991332497903358, 40.685448406537638 ], [ -73.991761777424216, 40.684813152616854 ] ], [ [ -73.990903151223208, 40.68608242509859 ], [ -73.991332497903358, 40.685448406537638 ] ], [ [ -73.990467394833786, 40.686727751928352 ], [ -73.990903151223208, 40.68608242509859 ] ], [ [ -73.990035002727595, 40.68736512581394 ], [ -73.990467394833786, 40.686727751928352 ] ], [ [ -73.989612422948525, 40.687991836831785 ], [ -73.990035002727595, 40.68736512581394 ] ], [ [ -73.989168127389462, 40.688615554503166 ], [ -73.989612422948525, 40.687991836831785 ] ], [ [ -73.988915571386684, 40.688971922127763 ], [ -73.989168127389462, 40.688615554503166 ] ], [ [ -73.988721468191187, 40.689245807906453 ], [ -73.988915571386684, 40.688971922127763 ] ] ] } },
{ "type": "Feature", "properties": { "id": "bike-28", "name": "HOYT ST", "facility_class": "II", "length_mi": 0.37, "segment_count": 10 }, "geometry": { "type": "MultiLineString", "coordinates": [ [ [ -73.989376674787209, 40.684222003034627 ], [ -73.989556625814444, 40.683955666407542 ] ], [ [ -73.989152159646864, 40.684554299619535 ], [ -73.989349163818972, 40.684262721729084 ] ], [ [ -73.988819263294417, 40.68506050870721 ], [ -73.989068739150994, 40.684680371767023 ] ], [ [ -73.988282936923142, 40.685866785258192 ], [ -73.988711560881484, 40.685224617728885 ] ], [ [ -73.987858867273474, 40.686503440477878 ], [ -73.988282936923142, 40.685866785258192 ] ], [ [ -73.987429243947076, 40.687138652657026 ], [ -73.987858867273474, 40.686503440477878 ] ], [ [ -73.987000014800856, 40.687773115801299 ], [ -73.987429243947076, 40.687138652657026 ] ], [ [ -73.986568222046373, 40.688408252381166 ], [ -73.987000014800856, 40.687773115801299 ] ], [ [ -73.986354195606751, 40.688724320911966 ], [ -73.986568222046373, 40.688408252381166 ] ], [ [ -73.986155342869949, 40.689017977081789 ], [ -73.986354195606751, 40.688724320911966 ] ] ] } },
{ "type": "Feature", "properties": { "id": "bike-29", "name": "NAVY ST", "facility_class": "I", "length_mi": 0.37, "segment_count": 8 }, "geometry": { "type": "MultiLineString", "coordinates": [ [ [ -73.980155745137949, 40.694810117252494 ], [ -73.980135180336077, 40.69469801698196 ], [ -73.980094750681218, 40.694587004693503 ], [ -73.980034751139627, 40.69448012144894 ], [ -73.979956519019538, 40.694380295017737 ], [ -73.979862370142726, 40.694290092229515 ], [ -73.979755391864558, 40.69421147670657 ] ], [ [ -73.979755391864558, 40.69421147670657 ], [ -73.979616477443813, 40.694115583596215 ], [ -73.979616359157617, 40.694115501628616 ], [ -73.979616264533149, 40.694115421466208 ], [ -73.979490745953484, 40.694007139518632 ], [ -73.979490614661458, 40.694007031433721 ], [ -73.979490496389516, 40.694006904440336 ], [ -73.97938094171316, 40.693887756025582 ], [ -73.97928966909555, 40.693759993788866 ], [ -73.979289574486231, 40.693759867700066 ], [ -73.979289503539022, 40.693759741615452 ], [ -73.97921815660311, 40.693626002598215 ], [ -73.979218062008428, 40.693625830583144 ], [ -73.979217992261198, 40.693625651368514 ], [ -73.979167185372916, 40.69348832297824 ] ], [ [ -73.98022973300165, 40.695288992910974 ], [ -73.980155745137949, 40.694810117252494 ] ], [ [ -73.980310197880854, 40.695905994724065 ], [ -73.980281868040535, 40.69563211157535 ] ], [ [ -73.98050926238291, 40.69744627417699 ], [ -73.980409614813581, 40.696559342543544 ] ], [ [ -73.980544191530655, 40.698246511386905 ], [ -73.98050926238291, 40.69744627417699 ] ], [ [ -73.980486043308403, 40.699279227902593 ], [ -73.980544191530655, 40.698246511386905 ] ], [ [ -73.980462173349835, 40.699703157965892 ], [ -73.98048077907626, 40.699372714583063 ] ] ] } },
{ "type": "Feature", "properties": { "id": "bike-30", "name": "ADAMS ST", "facility_class": "III", "length_mi": 0.29, "segment_count": 6 }, "geometry": { "type": "MultiLineString", "coordinates": [ [ [ -73.989115714481031, 40.692851824569871 ], [ -73.98908009162686, 40.692490733519804 ] ], [ [ -73.988501958384802, 40.697357946423743 ], [ -73.988557288010071, 40.696345349094898 ] ], [ [ -73.988463184988106, 40.698067511161014 ], [ -73.988501958384802, 40.697357946423743 ] ], [ [ -73.988403477302114, 40.699160164216067 ], [ -73.988463184988106, 40.698067511161014 ] ], [ [ -73.988334510169224, 40.700009191611635 ], [ -73.988387477681627, 40.69942717797052 ] ], [ [ -73.98866705333964, 40.7007049973679 ], [ -73.988689354774252, 40.700231176241495 ] ] ] } },
{ "type": "Feature", "properties": { "id": "bike-31", "name": "SANDS ST", "facility_class": "I", "length_mi": 0.28, "segment_count": 7 }, "geometry": { "type": "MultiLineString", "coordinates": [ [ [ -73.980944138101805, 40.699769080616377 ], [ -73.980572514217528, 40.699758377137123 ] ], [ [ -73.982042862101324, 40.699800716672094 ], [ -73.981048826723921, 40.699772094805788 ] ], [ [ -73.983020528421775, 40.699788097591934 ], [ -73.983552489812524, 40.699790333366799 ] ], [ [ -73.984823306287382, 40.699855058462255 ], [ -73.985313262823993, 40.699927828472426 ], [ -73.985355049175467, 40.699933616885623 ], [ -73.98539695160153, 40.699938892907021 ], [ -73.985438960635634, 40.699943656535247 ], [ -73.985481064445153, 40.699947905067198 ], [ -73.985523252380148, 40.699951638501375 ], [ -73.985565513791286, 40.69995485503533 ], [ -73.985607838028685, 40.699957553767199 ], [ -73.986182200734973, 40.699980145962023 ], [ -73.986236617923979, 40.699900485076839 ] ], [ [ -73.984532356457748, 40.699823655793359 ], [ -73.983869392006511, 40.699790896911296 ] ], [ [ -73.980949087517132, 40.699665437891497 ], [ -73.980576874880569, 40.699655044104802 ] ], [ [ -73.982053640892403, 40.699696273353972 ], [ -73.98105378073538, 40.699668361125489 ] ] ] } },
{ "type": "Feature", "properties": { "id": "bike-32", "name": "CUMBERLAND ST", "facility_class": "II", "length_mi": 0.26, "segment_count": 5 }, "geometry": { "type": "MultiLineString", "coordinates": [ [ [ -73.972622220889647, 40.687085350275595 ], [ -73.97239832639562, 40.685953330404296 ] ], [ [ -73.972687460050835, 40.687415194185824 ], [ -73.972622220889647, 40.687085350275595 ] ], [ [ -73.972756942412886, 40.68776452436159 ], [ -73.972687460050835, 40.687415194185824 ] ], [ [ -73.973067242486266, 40.689324559526341 ], [ -73.972756942412886, 40.68776452436159 ] ], [ [ -73.973126384045273, 40.689621888634193 ], [ -73.973067242486266, 40.689324559526341 ] ] ] } },
{ "type": "Feature", "properties": { "id": "bike-33", "name": "WASHINGTON PARK", "facility_class": "II", "length_mi": 0.26, "segment_count": 2 }, "geometry": { "type": "MultiLineString", "coordinates": [ [ [ -73.973540185669137, 40.691707609098501 ], [ -73.973126384045273, 40.689621888634193 ] ], [ [ -73.973854724461631, 40.69328655940884 ], [ -73.973540185669137, 40.691707609098501 ] ] ] } },
{ "type": "Feature", "properties": { "id": "bike-34", "name": "SCHERMERHORN ST", "facility_class": "II", "length_mi": 0.22, "segment_count": 2 }, "geometry": { "type": "MultiLineString", "coordinates": [ [ [ -73.991741706431441, 40.690992636679844 ], [ -73.989822182496255, 40.690386887828595 ] ], [ [ -73.993736597111422, 40.69153504251927 ], [ -73.991741706431441, 40.690992636679844 ] ] ] } },
{ "type": "Feature", "properties": { "id": "bike-35", "name": "YORK ST", "facility_class": "II", "length_mi": 0.21, "segment_count": 4 }, "geometry": { "type": "MultiLineString", "coordinates": [ [ [ -73.988627867387947, 40.701591475486936 ], [ -73.98768943022931, 40.701557212619257 ] ], [ [ -73.987195384325275, 40.701532223543104 ], [ -73.98674782223469, 40.701526499657547 ] ], [ [ -73.991745893521426, 40.702563824951667 ], [ -73.991687600006884, 40.702479195160457 ], [ -73.991623373460683, 40.702397091743229 ], [ -73.991553403188618, 40.702317753339791 ], [ -73.991477891509419, 40.702241413187245 ], [ -73.991397063221598, 40.702168295518945 ], [ -73.991311152587187, 40.702098614663399 ], [ -73.991220411615032, 40.702032574144184 ], [ -73.991125108876844, 40.701970367580685 ], [ -73.991025520041731, 40.701912178687635 ], [ -73.990921940892321, 40.701858176773527 ], [ -73.990814671942019, 40.701808521242299 ], [ -73.990704030268418, 40.701763356191186 ], [ -73.990590337680587, 40.701722814912678 ], [ -73.990473929002363, 40.701687015392437 ] ], [ [ -73.990473929002363, 40.701687015392437 ], [ -73.98967880929311, 40.701628305504478 ] ] ] } },
{ "type": "Feature", "properties": { "id": "bike-36", "name": "CADMAN PLZ E", "facility_class": "I", "length_mi": 0.2, "segment_count": 1 }, "geometry": { "type": "LineString", "coordinates": [ [ -73.989844133532785, 40.699329443556067 ], [ -73.990028421253896, 40.696370783154848 ] ] } }
]
}
