{
"type": "FeatureCollection",
"name": "neighborhoods",
"crs": { "type": "name", "properties": { "name": "urn:ogc:def:crs:OGC:1.3:CRS84" } },
"features": [
{ "type": "Feature", "properties": { "id": "BK0201", "name": "Brooklyn Heights", "borough": "Brooklyn", "area_sqmi": 0.36 }, "geometry": { "type": "MultiPolygon", "coordinates": [ [ [ [ -73.992363669111896, 40.689690123777069 ], [ -73.994360927421667, 40.690239480587117 ], [ -73.996232780345522, 40.690757775089132 ], [ -73.997769243129781, 40.691194697860951 ], [ -73.998030485569558, 40.691253722876375 ], [ -73.998452717166614, 40.691369983477728 ], [ -73.998938288463719, 40.691495145537218 ], [ -73.999100571845162, 40.691536974999231 ], [ -73.999201618060084, 40.691571834850393 ], [ -73.999288194745233, 40.691593959927303 ], [ -73.999365400410056, 40.691613078775617 ], [ -73.999512740510042, 40.691651450811662 ], [ -73.999915172345709, 40.691767230010512 ], [ -74.000190402541335, 40.691896447632963 ], [ -74.000623033981469, 40.692041490667684 ], [ -74.000585473685362, 40.692125862862007 ], [ -74.00104717398014, 40.692264598415015 ], [ -74.001617274016922, 40.692549071104274 ], [ -74.00169989306643, 40.692382767136749 ], [ -74.001743620450128, 40.692406749705711 ], [ -74.001541728322138, 40.692785963252923 ], [ -74.001270149026382, 40.693296062679124 ], [ -74.000958683509552, 40.694069083582399 ], [ -74.000782952096401, 40.694286516167416 ], [ -74.000701046791093, 40.694387856845033 ], [ -74.00026872245725, 40.69496580308072 ], [ -73.999882148943357, 40.695605199245854 ], [ -73.999595467084546, 40.696065038836807 ], [ -73.999461433825985, 40.696280026604491 ], [ -73.999419718360272, 40.696346937818703 ], [ -73.999413023451694, 40.69635767695609 ], [ -73.999523737714426, 40.696574827046227 ], [ -73.999474066665172, 40.696704134462159 ], [ -73.999294687481495, 40.696795125794267 ], [ -73.999181988847965, 40.696885188567506 ], [ -73.998996041391834, 40.69681227837313 ], [ -73.998939689026116, 40.696940940516008 ], [ -73.99887207177386, 40.696923784574373 ], [ -73.998764579396607, 40.697120733094152 ], [ -73.998871170096109, 40.697157577296032 ], [ -73.998377605316861, 40.698063296146245 ], [ -73.998021026370637, 40.698761736573957 ], [ -73.997999574520762, 40.698797685544463 ], [ -73.997498982219426, 40.699638869321397 ], [ -73.997367457236408, 40.699634235432534 ], [ -73.997160541558571, 40.699792812644318 ], [ -73.997181482922954, 40.699994484968222 ], [ -73.997175842678402, 40.700105991966552 ], [ -73.997244628056606, 40.700141409897242 ], [ -73.996697689314217, 40.700876976917264 ], [ -73.996617360635796, 40.700985008031509 ], [ -73.996498289134749, 40.701144908530765 ], [ -73.996289920973709, 40.701425176037255 ], [ -73.996216394028281, 40.701524074169853 ], [ -73.995384483166063, 40.702643010065984 ], [ -73.995260151173795, 40.70281020953896 ], [ -73.995138267746512, 40.702974114723041 ], [ -73.995064384034649, 40.703100313653664 ], [ -73.995045926602714, 40.703131839799752 ], [ -73.994709232231003, 40.702993886624846 ], [ -73.994382977475112, 40.702886001923396 ], [ -73.994325135949509, 40.702862436890854 ], [ -73.994184947035166, 40.702805799340616 ], [ -73.993852000589939, 40.702673910335896 ], [ -73.993817548771105, 40.702660309303774 ], [ -73.993299204346329, 40.702431941073755 ], [ -73.993165903192008, 40.702365224411601 ], [ -73.99292459908979, 40.702237006799237 ], [ -73.992828647500204, 40.702184777943707 ], [ -73.992612048403331, 40.702061129508806 ], [ -73.992327677247175, 40.701855370917805 ], [ -73.992220135621196, 40.701773663027431 ], [ -73.992110677006025, 40.701693443718653 ], [ -73.992066817722971, 40.701658860408259 ], [ -73.992027727927905, 40.701628141594043 ], [ -73.991936448479009, 40.701556410136639 ], [ -73.991262943937386, 40.701027103142479 ], [ -73.990932016754499, 40.700766216048848 ], [ -73.99087453692033, 40.700673117296027 ], [ -73.99083516107234, 40.700569762264045 ], [ -73.990817664269585, 40.700462293323191 ], [ -73.990822719424159, 40.700354754309458 ], [ -73.990841577647245, 40.7002812575926 ], [ -73.991029579796944, 40.699847171120602 ], [ -73.991240331411916, 40.699367603071408 ], [ -73.991286681043277, 40.699234792018238 ], [ -73.991326767766452, 40.69910080567201 ], [ -73.991360540455631, 40.698965815043543 ], [ -73.991387956044278, 40.698829992424592 ], [ -73.991408979294476, 40.698693511021688 ], [ -73.99142358369248, 40.698556545180836 ], [ -73.991431750637858, 40.698419269711501 ], [ -73.99143346974742, 40.698281859817271 ], [ -73.991422896922117, 40.697780992822892 ], [ -73.991368120097022, 40.697013752735835 ], [ -73.991284136217061, 40.696588210283913 ], [ -73.991231054439268, 40.696431260462546 ], [ -73.991196424768589, 40.696324483611363 ], [ -73.991174949904646, 40.696251353107662 ], [ -73.991152712466118, 40.696184467456682 ], [ -73.990808037113453, 40.69502713429717 ], [ -73.990739958762532, 40.695031747736259 ], [ -73.990606046044959, 40.694571954208541 ], [ -73.990666054993142, 40.694568823984149 ], [ -73.990444740282058, 40.693828251433736 ], [ -73.990452864402585, 40.693720585279273 ], [ -73.990587943980273, 40.693391378969707 ], [ -73.990621891071385, 40.693308644489051 ], [ -73.990678025134045, 40.693171836636637 ], [ -73.990728958944231, 40.693047701447661 ], [ -73.990850414094297, 40.692798250649602 ], [ -73.990971868335379, 40.692548801390721 ], [ -73.990666262249192, 40.692497177565805 ], [ -73.989471085867478, 40.692291417617035 ], [ -73.989105416770414, 40.692153314024807 ], [ -73.989029446989889, 40.692123862022747 ], [ -73.988933562455856, 40.692086641989007 ], [ -73.989103771415444, 40.691421571028791 ], [ -73.989207275586537, 40.691016717410527 ], [ -73.98922003518615, 40.690965971698539 ], [ -73.989639492170397, 40.690326708923344 ], [ -73.989880948111932, 40.689993112387356 ], [ -73.990090148420222, 40.689704078883359 ], [ -73.990474880405557, 40.689141074505081 ], [ -73.990706694929159, 40.6891367446134 ], [ -73.992363669111896, 40.689690123777069 ] ] ] ] } },
{ "type": "Feature", "properties": { "id": "BK0202", "name": "Downtown Brooklyn-DUMBO-Boerum Hill", "borough": "Brooklyn", "area_sqmi": 0.85 }, "geometry": { "type": "MultiPolygon", "coordinates": [ [ [ [ -73.979057669462406, 40.705952889100679 ], [ -73.979060848457706, 40.705946029443531 ], [ -73.979243334165048, 40.705551196880151 ], [ -73.979120921101739, 40.705530069673536 ], [ -73.979327624036046, 40.704746276833234 ], [ -73.979602926627322, 40.704176400928802 ], [ -73.979988540119948, 40.70354105869319 ], [ -73.980274422682342, 40.703041400444754 ], [ -73.980239705592524, 40.702924408751358 ], [ -73.980026387273796, 40.702140461442823 ], [ -73.980904027453974, 40.701861429829897 ], [ -73.980649076557285, 40.701560873256575 ], [ -73.980844403560113, 40.701295240602242 ], [ -73.980777789742476, 40.701247453841411 ], [ -73.980715560774044, 40.701196357875411 ], [ -73.980657999819798, 40.701142185218522 ], [ -73.980605368800795, 40.701085182384794 ], [ -73.980557907202339, 40.701025608766628 ], [ -73.980515831017073, 40.700963735578576 ], [ -73.980479331653768, 40.700899844251495 ], [ -73.980448575185662, 40.700834225521625 ], [ -73.980423701552439, 40.70076717798473 ], [ -73.980404823921901, 40.700699006737516 ], [ -73.980417436508247, 40.700517664340261 ], [ -73.980440784683097, 40.700183631394289 ], [ -73.980462171128579, 40.699703158170784 ], [ -73.980480777715925, 40.69937271448601 ], [ -73.980486040813105, 40.699279228633671 ], [ -73.980544190517818, 40.698246512922267 ], [ -73.980509260942199, 40.697446275543882 ], [ -73.980409614511018, 40.696559344085138 ], [ -73.980402697902036, 40.69650210518838 ], [ -73.980395616628257, 40.696443490025764 ], [ -73.980387234002947, 40.696382911555411 ], [ -73.9803706334975, 40.696263050798407 ], [ -73.980356828209835, 40.696177517031302 ], [ -73.980310197351201, 40.69590599500556 ], [ -73.980281866299023, 40.695632112277544 ], [ -73.980253659783216, 40.695457259658177 ], [ -73.980229732060465, 40.695288993598119 ], [ -73.980157973484168, 40.694824547852626 ], [ -73.980138095067602, 40.694710055724961 ], [ -73.980097938156618, 40.694596559220322 ], [ -73.980037773307927, 40.694487166499762 ], [ -73.979958935287598, 40.6943848689655 ], [ -73.9798637652422, 40.694292297671488 ], [ -73.979755391322684, 40.694211476523265 ], [ -73.979616475337465, 40.6941155832926 ], [ -73.979616357828348, 40.694115502020999 ], [ -73.979616263429492, 40.69411542242878 ], [ -73.979490744778289, 40.694007140422471 ], [ -73.979490614292203, 40.694007031674005 ], [ -73.979490495917162, 40.69400690483468 ], [ -73.979380940501926, 40.693887757379755 ], [ -73.979289668763244, 40.693759993994227 ], [ -73.979289573719441, 40.69375986715891 ], [ -73.979289503106287, 40.69375974250579 ], [ -73.979218155212507, 40.693626003425358 ], [ -73.979218061503943, 40.693625831022707 ], [ -73.97921799090777, 40.693625652090716 ], [ -73.979167183389976, 40.693488323221267 ], [ -73.980112991333698, 40.693523881039567 ], [ -73.980983330646438, 40.69355661791635 ], [ -73.981471501826803, 40.69357493541424 ], [ -73.981547569726061, 40.693577789570298 ], [ -73.981753168766744, 40.693583385433293 ], [ -73.982266896580242, 40.693604775555897 ], [ -73.982349873835062, 40.693607888238262 ], [ -73.982430086367643, 40.693606228421253 ], [ -73.982510912657446, 40.693606611302954 ], [ -73.982511615262013, 40.693562794455559 ], [ -73.982517474169612, 40.692977388309622 ], [ -73.981758889557085, 40.692955173542316 ], [ -73.98177533751705, 40.692467636566874 ], [ -73.981790257513509, 40.692025415985874 ], [ -73.981789071920403, 40.691644868387009 ], [ -73.982062155952548, 40.691312091071858 ], [ -73.981423019592611, 40.689985794849356 ], [ -73.981397731431628, 40.689928670434526 ], [ -73.9814731510603, 40.689931210087934 ], [ -73.981574202746813, 40.689935183645623 ], [ -73.982767200443817, 40.6899864811041 ], [ -73.983134672486912, 40.690002277262579 ], [ -73.983504856819366, 40.690005706429595 ], [ -73.98350982042075, 40.689922171752016 ], [ -73.982956842177884, 40.689699820273084 ], [ -73.982097378737365, 40.689358009801865 ], [ -73.981552982347495, 40.68914616423865 ], [ -73.981017867783777, 40.688937927004844 ], [ -73.980928227867508, 40.688902477776288 ], [ -73.980833751981351, 40.68886378450793 ], [ -73.98076843317854, 40.688752272176131 ], [ -73.980637289033282, 40.688534982949925 ], [ -73.980649720737716, 40.688459478056103 ], [ -73.980127560969905, 40.687750008622224 ], [ -73.979840557439729, 40.687344331546072 ], [ -73.97959037594147, 40.687003902355343 ], [ -73.97936297510725, 40.68668200071491 ], [ -73.979090657191804, 40.686293866656612 ], [ -73.978994028401019, 40.686156132878303 ], [ -73.978382162993327, 40.685340011803973 ], [ -73.978274159871177, 40.685195951771668 ], [ -73.978077295526276, 40.684914940390115 ], [ -73.97838862495648, 40.684423342049087 ], [ -73.978429706009621, 40.684355612662273 ], [ -73.978760223748878, 40.683765444985731 ], [ -73.97918390445713, 40.683128838475433 ], [ -73.979616800192119, 40.682491270213333 ], [ -73.979688971584835, 40.682521973364153 ], [ -73.981992440068879, 40.683418142414801 ], [ -73.983952926946259, 40.684181429202816 ], [ -73.986119121710701, 40.685024330008254 ], [ -73.986933229389848, 40.6853413005229 ], [ -73.988282936413356, 40.685866785622224 ], [ -73.988633559359954, 40.685341481038563 ], [ -73.988711560327502, 40.685224618982389 ], [ -73.988787964990678, 40.685108199826466 ], [ -73.988819262711147, 40.685060508613674 ], [ -73.989068737487784, 40.6846803718351 ], [ -73.989098133590957, 40.684635581605633 ], [ -73.989128405969467, 40.684589453073492 ], [ -73.991058665352966, 40.68534169502891 ], [ -73.991332496945418, 40.685448406236276 ], [ -73.993929294838267, 40.686452871649173 ], [ -73.993787369307526, 40.686755966935273 ], [ -73.993604230810973, 40.687127230550871 ], [ -73.993338228108328, 40.68767879743654 ], [ -73.993268298708216, 40.687824452331178 ], [ -73.993004516448508, 40.688364636040063 ], [ -73.992928889558627, 40.68851942212526 ], [ -73.99268552608855, 40.689033246531338 ], [ -73.992622860206168, 40.689160548836128 ], [ -73.992363669111896, 40.689690123777069 ], [ -73.990706694929159, 40.6891367446134 ], [ -73.990474880405557, 40.689141074505081 ], [ -73.990090148420222, 40.689704078883359 ], [ -73.989880948111932, 40.689993112387356 ], [ -73.989639492170397, 40.690326708923344 ], [ -73.98922003518615, 40.690965971698539 ], [ -73.989207275586537, 40.691016717410527 ], [ -73.989103771415444, 40.691421571028791 ], [ -73.988933562455856, 40.692086641989007 ], [ -73.989029446989889, 40.692123862022747 ], [ -73.989105416770414, 40.692153314024807 ], [ -73.989471085867478, 40.692291417617035 ], [ -73.990666262249192, 40.692497177565805 ], [ -73.990971868335379, 40.692548801390721 ], [ -73.990850414094297, 40.692798250649602 ], [ -73.990728958944231, 40.693047701447661 ], [ -73.990678025134045, 40.693171836636637 ], [ -73.990621891071385, 40.693308644489051 ], [ -73.990587943980273, 40.693391378969707 ], [ -73.990452864402585, 40.693720585279273 ], [ -73.990444740282058, 40.693828251433736 ], [ -73.990666054993142, 40.694568823984149 ], [ -73.990606046044959, 40.694571954208541 ], [ -73.990739958762532, 40.695031747736259 ], [ -73.990808037113453, 40.69502713429717 ], [ -73.991152712466118, 40.696184467456682 ], [ -73.991174949904646, 40.696251353107662 ], [ -73.991196424768589, 40.696324483611363 ], [ -73.991231054439268, 40.696431260462546 ], [ -73.991284136217061, 40.696588210283913 ], [ -73.991368120097022, 40.697013752735835 ], [ -73.991422896922117, 40.697780992822892 ], [ -73.99143346974742, 40.698281859817271 ], [ -73.991431750637858, 40.698419269711501 ], [ -73.99142358369248, 40.698556545180836 ], [ -73.991408979294476, 40.698693511021688 ], [ -73.991387956044278, 40.698829992424592 ], [ -73.991360540455631, 40.698965815043543 ], [ -73.991326767766452, 40.69910080567201 ], [ -73.991286681043277, 40.699234792018238 ], [ -73.991240331411916, 40.699367603071408 ], [ -73.991029579796944, 40.699847171120602 ], [ -73.990841577647245, 40.7002812575926 ], [ -73.990822719424159, 40.700354754309458 ], [ -73.990817664269585, 40.700462293323191 ], [ -73.99083516107234, 40.700569762264045 ], [ -73.99087453692033, 40.700673117296027 ], [ -73.990932016754499, 40.700766216048848 ], [ -73.991262943937386, 40.701027103142479 ], [ -73.991936448479009, 40.701556410136639 ], [ -73.992027727927905, 40.701628141594043 ], [ -73.992066817722971, 40.701658860408259 ], [ -73.992110677006025, 40.701693443718653 ], [ -73.992220135621196, 40.701773663027431 ], [ -73.992327677247175, 40.701855370917805 ], [ -73.992612048403331, 40.702061129508806 ], [ -73.992828647500204, 40.702184777943707 ], [ -73.99292459908979, 40.702237006799237 ], [ -73.993165903192008, 40.702365224411601 ], [ -73.993299204346329, 40.702431941073755 ], [ -73.993817548771105, 40.702660309303774 ], [ -73.993852000589939, 40.702673910335896 ], [ -73.994184947035166, 40.702805799340616 ], [ -73.994325135949509, 40.702862436890854 ], [ -73.994382977475112, 40.702886001923396 ], [ -73.994709232231003, 40.702993886624846 ], [ -73.995045926602714, 40.703131839799752 ], [ -73.995021344950743, 40.703147869246848 ], [ -73.994800381868117, 40.703291958644698 ], [ -73.994662902775701, 40.703430609061911 ], [ -73.994857658676864, 40.70356613902883 ], [ -73.994995424018541, 40.703650564216957 ], [ -73.994882398363941, 40.703788025837596 ], [ -73.994769341255221, 40.703952894953716 ], [ -73.994714241470874, 40.703996689061036 ], [ -73.994771579930813, 40.704049360374619 ], [ -73.994792313719969, 40.704068406136507 ], [ -73.994792312119429, 40.704088894707319 ], [ -73.994772860964886, 40.704104541699394 ], [ -73.994698073827522, 40.704164700797449 ], [ -73.994776142653848, 40.70424586155513 ], [ -73.994702289363161, 40.70429253191368 ], [ -73.994636033423589, 40.704334403428739 ], [ -73.994569788848466, 40.704376264016659 ], [ -73.993863410318767, 40.704556007433204 ], [ -73.993806872484171, 40.704539612711763 ], [ -73.993781554264856, 40.704468945046592 ], [ -73.993774571417589, 40.704449457408948 ], [ -73.993693360412209, 40.704476129340549 ], [ -73.993687921364355, 40.704477914211672 ], [ -73.993586069753547, 40.704509118218375 ], [ -73.993626439167272, 40.704595244154973 ], [ -73.993508814036048, 40.704623505274171 ], [ -73.992801042289727, 40.704634023928044 ], [ -73.992691355749841, 40.704629850448178 ], [ -73.992512106160007, 40.704694112557696 ], [ -73.992308337872899, 40.704690001742897 ], [ -73.992127035350791, 40.704689641531125 ], [ -73.992121006390832, 40.704396201075546 ], [ -73.991957154311947, 40.704200677853478 ], [ -73.991861591893098, 40.704086642607173 ], [ -73.991417947827046, 40.704004089020842 ], [ -73.990947552847473, 40.704032442641903 ], [ -73.990714731148131, 40.704351378538206 ], [ -73.990546179985358, 40.704416167501989 ], [ -73.990307684938102, 40.704839880602165 ], [ -73.990284960356661, 40.704866428889865 ], [ -73.990227211960061, 40.704934044487267 ], [ -73.99009111393444, 40.70494346328929 ], [ -73.989493589713518, 40.704809038123805 ], [ -73.98934734717507, 40.704729691702859 ], [ -73.989200464361488, 40.704723896988973 ], [ -73.989069896525692, 40.704705915200996 ], [ -73.988988977577847, 40.704690356781811 ], [ -73.988697233047517, 40.704564579279619 ], [ -73.988407448071797, 40.704554500338425 ], [ -73.9883033220854, 40.704540468452656 ], [ -73.988289991113007, 40.705070658495259 ], [ -73.987956764254619, 40.705134217412606 ], [ -73.987269692350878, 40.705175721196895 ], [ -73.986923483235628, 40.705162462485845 ], [ -73.986869350327211, 40.705156749216741 ], [ -73.986817189067267, 40.705144338985136 ], [ -73.986768419809309, 40.705125569722831 ], [ -73.986724370540671, 40.705100952518009 ], [ -73.986686240718853, 40.705071157698207 ], [ -73.986655068610418, 40.705036996576538 ], [ -73.986649660005654, 40.705029596108346 ], [ -73.986644581194156, 40.705022060986224 ], [ -73.986639837677487, 40.705014400927659 ], [ -73.986635434737025, 40.705006623974448 ], [ -73.986631378094785, 40.704998738336116 ], [ -73.986627671931132, 40.704990753394846 ], [ -73.986625951709243, 40.704986726680289 ], [ -73.986622778964815, 40.704978609956896 ], [ -73.986529729460457, 40.704979099173883 ], [ -73.986429115206263, 40.705069179428094 ], [ -73.986434297606138, 40.705348607419722 ], [ -73.984743298770695, 40.705542907267017 ], [ -73.984021497168627, 40.705598634564744 ], [ -73.983438061558559, 40.705644094847905 ], [ -73.983426275432379, 40.705577220847125 ], [ -73.983406501761834, 40.705466370660396 ], [ -73.983368198120473, 40.70546106507657 ], [ -73.983263986721965, 40.705485066660721 ], [ -73.983086390267417, 40.705477090702239 ], [ -73.983089864118384, 40.705511541825814 ], [ -73.982835520472022, 40.705555807398021 ], [ -73.982741618859819, 40.705572441532901 ], [ -73.982745079925806, 40.705552709869387 ], [ -73.982748592356074, 40.705532691742057 ], [ -73.982459568722135, 40.705508797728143 ], [ -73.982458984874526, 40.705542414972349 ], [ -73.982373404399127, 40.705543350437608 ], [ -73.982329441505456, 40.705552033664098 ], [ -73.98092510223934, 40.705369255200537 ], [ -73.980908645637896, 40.705907944314568 ], [ -73.98074070362857, 40.705855160372941 ], [ -73.980220042525715, 40.705851076223716 ], [ -73.980237153043902, 40.705763283559904 ], [ -73.979559184872372, 40.705743615250057 ], [ -73.97955579933668, 40.705770215777811 ], [ -73.979328652599065, 40.705765433355069 ], [ -73.979279830972004, 40.705789481974385 ], [ -73.979273362768637, 40.705917135302336 ], [ -73.979213917038862, 40.705906640735904 ], [ -73.979182707348784, 40.705965215475864 ], [ -73.979050498380559, 40.705966963591685 ], [ -73.979057669462406, 40.705952889100679 ] ] ] ] } },
{ "type": "Feature", "properties": { "id": "BK0203", "name": "Fort Greene", "borough": "Brooklyn", "area_sqmi": 0.63 }, "geometry": { "type": "MultiPolygon", "coordinates": [ [ [ [ -73.962839636282609, 40.698038669009868 ], [ -73.962882195155245, 40.697827027075625 ], [ -73.962954161751327, 40.697603749766294 ], [ -73.96305480111252, 40.697392872436048 ], [ -73.963175834202346, 40.697187622415676 ], [ -73.963316361657803, 40.696989698249254 ], [ -73.963475151198111, 40.696800668200829 ], [ -73.963650735373434, 40.696621944992522 ], [ -73.963803370343214, 40.696495037704565 ], [ -73.963971856532851, 40.696378655892005 ], [ -73.964154177081241, 40.696274451179669 ], [ -73.964348014011122, 40.696183765515876 ], [ -73.964550704444932, 40.696107591627353 ], [ -73.964661071160933, 40.696074667053232 ], [ -73.964772936384321, 40.696044815667292 ], [ -73.964886152750736, 40.696018077312253 ], [ -73.965000570503179, 40.695994486861906 ], [ -73.965116037889501, 40.695974075038848 ], [ -73.96523240323387, 40.695956869173898 ], [ -73.965349513888725, 40.695942891880613 ], [ -73.965467214325784, 40.695932161736998 ], [ -73.966419795357893, 40.695964105613733 ], [ -73.967413632703696, 40.69599862902718 ], [ -73.968406557151184, 40.696036483935117 ], [ -73.969394499794276, 40.696080389420459 ], [ -73.969378616142933, 40.695991335034535 ], [ -73.969371956320373, 40.695937760867615 ], [ -73.969355677734924, 40.695854728979683 ], [ -73.969340976654522, 40.695768429552942 ], [ -73.968809895591036, 40.693120382901355 ], [ -73.969831183854865, 40.693134243973873 ], [ -73.969521150746161, 40.691563559264914 ], [ -73.969103623994528, 40.689467522510753 ], [ -73.97013154130974, 40.689506307958752 ], [ -73.969783141204829, 40.68775161261707 ], [ -73.96948939728216, 40.686288308147368 ], [ -73.969298791159304, 40.685337946860912 ], [ -73.969062019446241, 40.684157361362693 ], [ -73.968673984109614, 40.682085994122453 ], [ -73.968689612255986, 40.682005257597126 ], [ -73.969669403261776, 40.682211654069626 ], [ -73.970683479941826, 40.682422914259533 ], [ -73.971864241386342, 40.682670287308319 ], [ -73.972295268532136, 40.68275562039495 ], [ -73.972785296822778, 40.682852631620605 ], [ -73.973760848355397, 40.683049408639775 ], [ -73.974838352930021, 40.683287742377942 ], [ -73.975839629461547, 40.68349095920491 ], [ -73.975950232039366, 40.683513232049442 ], [ -73.976777476382438, 40.683812312073584 ], [ -73.977457220091452, 40.684052287613262 ], [ -73.978077295526376, 40.684914940390115 ], [ -73.978274159871233, 40.685195951771668 ], [ -73.978382162993441, 40.685340011803923 ], [ -73.978994028401118, 40.686156132878274 ], [ -73.979090657191762, 40.686293866656563 ], [ -73.97936297510725, 40.686682000714875 ], [ -73.979590375941584, 40.687003902355343 ], [ -73.9798405574398, 40.687344331546072 ], [ -73.980127560969962, 40.687750008622224 ], [ -73.980649720737759, 40.688459478056046 ], [ -73.980637289033282, 40.688534982949925 ], [ -73.980768433178611, 40.688752272176096 ], [ -73.980833751981478, 40.688863784507873 ], [ -73.980928227867622, 40.688902477776288 ], [ -73.981017867783834, 40.688937927004844 ], [ -73.981552982347537, 40.689146164238593 ], [ -73.982097378737365, 40.689358009801829 ], [ -73.982956842177984, 40.689699820273049 ], [ -73.98350982042075, 40.689922171751981 ], [ -73.983504856819366, 40.690005706429559 ], [ -73.983134672487026, 40.690002277262536 ], [ -73.98276720044386, 40.6899864811041 ], [ -73.981574202746771, 40.689935183645623 ], [ -73.981473151060342, 40.689931210087934 ], [ -73.981397731431684, 40.689928670434526 ], [ -73.981423019592725, 40.689985794849314 ], [ -73.982062155952548, 40.691312091071808 ], [ -73.981789071920346, 40.691644868386973 ], [ -73.981790257513637, 40.692025415985825 ], [ -73.98177533751705, 40.692467636566832 ], [ -73.981758889557184, 40.692955173542252 ], [ -73.982517474169612, 40.692977388309586 ], [ -73.982511615262069, 40.693562794455524 ], [ -73.982510912657403, 40.693606611302954 ], [ -73.982430086367643, 40.693606228421253 ], [ -73.982349873835062, 40.693607888238233 ], [ -73.982266896580299, 40.693604775555897 ], [ -73.981753168766843, 40.693583385433293 ], [ -73.981547569726061, 40.69357778957027 ], [ -73.98147150182686, 40.693574935414198 ], [ -73.980983330646495, 40.693556617916293 ], [ -73.980112991333797, 40.693523881039567 ], [ -73.979167183390018, 40.693488323221231 ], [ -73.979217990907827, 40.693625652090716 ], [ -73.979218061503943, 40.693625831022707 ], [ -73.979218155212507, 40.693626003425315 ], [ -73.979289503106287, 40.69375974250579 ], [ -73.979289573719583, 40.693759867158874 ], [ -73.979289668763286, 40.693759993994199 ], [ -73.979380940501969, 40.693887757379706 ], [ -73.979490495917105, 40.694006904834644 ], [ -73.979490614292203, 40.694007031673962 ], [ -73.979490744778388, 40.694007140422471 ], [ -73.979616263429492, 40.694115422428744 ], [ -73.979616357828476, 40.694115502020964 ], [ -73.979616475337522, 40.69411558329255 ], [ -73.979755391322627, 40.694211476523222 ], [ -73.9798637652422, 40.694292297671439 ], [ -73.979958935287655, 40.6943848689655 ], [ -73.98003777330787, 40.694487166499712 ], [ -73.980097938156561, 40.694596559220322 ], [ -73.980138095067701, 40.694710055724912 ], [ -73.980157973484168, 40.694824547852626 ], [ -73.980229732060408, 40.695288993598091 ], [ -73.980253659783315, 40.695457259658141 ], [ -73.980281866299066, 40.695632112277544 ], [ -73.980310197351201, 40.69590599500556 ], [ -73.980356828209949, 40.696177517031252 ], [ -73.9803706334975, 40.696263050798372 ], [ -73.980387234002947, 40.696382911555368 ], [ -73.980395616628201, 40.696443490025764 ], [ -73.980402697902093, 40.696502105188337 ], [ -73.980409614511075, 40.696559344085088 ], [ -73.98050926094227, 40.697446275543847 ], [ -73.980544190517875, 40.698246512922232 ], [ -73.978088927187954, 40.698138325176018 ], [ -73.977531015657192, 40.698115813181907 ], [ -73.976786424666045, 40.698086948051959 ], [ -73.97578275756544, 40.698047730504086 ], [ -73.975193150980317, 40.698022187189942 ], [ -73.974786637222635, 40.698004811209998 ], [ -73.973798708273833, 40.697960450287937 ], [ -73.973323785102679, 40.697939651235195 ], [ -73.972794777327948, 40.697920838732166 ], [ -73.971807939951958, 40.697885068698874 ], [ -73.971202811070953, 40.697857990377265 ], [ -73.970773148856182, 40.697840801490258 ], [ -73.969727897940558, 40.697804014382541 ], [ -73.968739492074278, 40.697759850809781 ], [ -73.967727446016795, 40.697717624987547 ], [ -73.966742285447992, 40.697672138626373 ], [ -73.965774761352463, 40.697635780488632 ], [ -73.964875731793114, 40.697714332235194 ], [ -73.963949084030574, 40.697860108074714 ], [ -73.962839636282609, 40.698038669009868 ] ] ] ] } },
{ "type": "Feature", "properties": { "id": "BK0204", "name": "Clinton Hill", "borough": "Brooklyn", "area_sqmi": 0.52 }, "geometry": { "type": "MultiPolygon", "coordinates": [ [ [ [ -73.961346557977365, 40.680463524803393 ], [ -73.963292054834838, 40.680881585895889 ], [ -73.964103881373902, 40.681052392379478 ], [ -73.964358833806116, 40.681105876098663 ], [ -73.964421771055896, 40.681119079834929 ], [ -73.965510432228697, 40.681344020479102 ], [ -73.966572470773457, 40.681564814364975 ], [ -73.967531966996461, 40.681768783617585 ], [ -73.968689612255986, 40.682005257597126 ], [ -73.968673984109614, 40.682085994122453 ], [ -73.969062019446241, 40.684157361362693 ], [ -73.969298791159304, 40.685337946860912 ], [ -73.96948939728216, 40.686288308147368 ], [ -73.969783141204829, 40.68775161261707 ], [ -73.97013154130974, 40.689506307958752 ], [ -73.969103623994528, 40.689467522510753 ], [ -73.969521150746161, 40.691563559264914 ], [ -73.969831183854865, 40.693134243973873 ], [ -73.968809895591036, 40.693120382901355 ], [ -73.969340976654522, 40.695768429552942 ], [ -73.969355677734924, 40.695854728979683 ], [ -73.969371956320373, 40.695937760867615 ], [ -73.969378616142933, 40.695991335034535 ], [ -73.969394499794276, 40.696080389420459 ], [ -73.968406557151184, 40.696036483935117 ], [ -73.967413632703696, 40.69599862902718 ], [ -73.966419795357893, 40.695964105613733 ], [ -73.965467214325784, 40.695932161736998 ], [ -73.965349513888725, 40.695942891880613 ], [ -73.96523240323387, 40.695956869173898 ], [ -73.965116037889501, 40.695974075038848 ], [ -73.965000570503179, 40.695994486861906 ], [ -73.964886152750736, 40.696018077312253 ], [ -73.964772936384321, 40.696044815667292 ], [ -73.964661071160933, 40.696074667053232 ], [ -73.964550704444932, 40.696107591627353 ], [ -73.964348014011122, 40.696183765515876 ], [ -73.964154177081241, 40.696274451179669 ], [ -73.963971856532851, 40.696378655892005 ], [ -73.963803370343214, 40.696495037704565 ], [ -73.963650735373434, 40.696621944992522 ], [ -73.963475151198111, 40.696800668200829 ], [ -73.963316361657803, 40.696989698249254 ], [ -73.963175834202346, 40.697187622415676 ], [ -73.96305480111252, 40.697392872436048 ], [ -73.962954161751327, 40.697603749766294 ], [ -73.962882195155245, 40.697827027075625 ], [ -73.962839636282609, 40.698038669009868 ], [ -73.962482957765985, 40.698095385257076 ], [ -73.962397690243847, 40.698108946240204 ], [ -73.96235903253023, 40.69811509173978 ], [ -73.9623307272674, 40.698119594324361 ], [ -73.961898376701342, 40.698188333033769 ], [ -73.96105100567938, 40.698326078818809 ], [ -73.960925436500744, 40.69773650751857 ], [ -73.960620563775834, 40.696320140192277 ], [ -73.960158546582733, 40.694117310161381 ], [ -73.959843444818347, 40.692530460674249 ], [ -73.959427913205545, 40.690447274714067 ], [ -73.959575918471373, 40.690429987538735 ], [ -73.960083367343856, 40.690370716209742 ], [ -73.960137607124224, 40.69036438035873 ], [ -73.960292815140505, 40.690346249915073 ], [ -73.960237402704081, 40.690062222807782 ], [ -73.960223043856047, 40.689988628388576 ], [ -73.960186917921902, 40.68980345699368 ], [ -73.960172560505825, 40.689729862566246 ], [ -73.960146779319402, 40.68960877684151 ], [ -73.960097145653464, 40.689345210097656 ], [ -73.960005197145719, 40.688881034220671 ], [ -73.959859394257037, 40.688147451217418 ], [ -73.959713746904043, 40.687415634593457 ], [ -73.959567701213373, 40.686682555927469 ], [ -73.959422592002824, 40.685950306934927 ], [ -73.959299594612347, 40.685334844628557 ], [ -73.95927598547658, 40.685216705549443 ], [ -73.959132066426889, 40.68448514870046 ], [ -73.958983279417595, 40.683749915653763 ], [ -73.958840618658655, 40.683018053518708 ], [ -73.959784427249872, 40.682908957032723 ], [ -73.960718011489448, 40.682801667994916 ], [ -73.961670863233309, 40.682690909980089 ], [ -73.961610147794133, 40.68237514322044 ], [ -73.96142366381487, 40.6814347008075 ], [ -73.961266253609224, 40.680523057737524 ], [ -73.961346557977365, 40.680463524803393 ] ] ] ] } }
]
}
